G1 E-60
G0 Z5 F20000
G0 X41.7657 Y6.71388
G0 Z0.5 F20000
G1 E60
G1 X41.7657 Y10.98034
G1 X41.76603 Y10.987
G1 X41.7666 Y10.99086
G1 X41.76755 Y10.99464
G1 X41.76886 Y10.99832
G1 X41.77053 Y11.00184
G1 X41.77254 Y11.00519
G1 X41.77486 Y11.00833
G1 X41.77934 Y11.01327
G1 X44.09173 Y13.32566
G1 X44.09667 Y13.33014
G1 X44.09981 Y13.33246
G1 X44.10316 Y13.33447
G1 X44.10668 Y13.33614
G1 X44.11036 Y13.33745
G1 X44.11414 Y13.3384
G1 X44.118 Y13.33897
G1 X44.12466 Y13.3393
G1 X59.42507 Y13.3393
G3 X59.5046 Y13.3723 I0.0000 J0.1125
G1 X59.91523 Y13.78286
G1 X59.92017 Y13.78734
G1 X59.92331 Y13.78966
G1 X59.92666 Y13.79167
G1 X59.93018 Y13.79334
G1 X59.93386 Y13.79465
G1 X59.93764 Y13.7956
G1 X59.9415 Y13.79617
G1 X59.94816 Y13.7965
G1 X65.6742 Y13.7965
G3 X65.7867 Y13.9090 I0.0000 J0.1125
G1 X65.7867 Y21.99724
G1 X65.78703 Y22.0039
G1 X65.7876 Y22.00776
G1 X65.78855 Y22.01154
G1 X65.78986 Y22.01522
G2 X66.2109 Y22.4408 I1.0620 J-0.6297
G3 X66.2439 Y22.5203 I-0.0795 J0.0795
G1 X66.2439 Y31.3842
G3 X66.1314 Y31.4967 I-0.1125 J0.0000
G1 X63.9724 Y31.4967
G1 X63.9724 Y31.5765
G1 X67.33757 Y31.5765
G3 X67.4171 Y31.6095 I0.0000 J0.1125
G1 X68.44483 Y32.63716
G1 X68.44977 Y32.64164
G1 X68.45291 Y32.64396
G1 X68.45626 Y32.64597
G1 X68.45978 Y32.64764
G1 X68.46346 Y32.64895
G1 X68.46724 Y32.6499
G1 X68.4711 Y32.65047
G1 X68.47776 Y32.6508
G1 X71.68154 Y32.6508
G1 X71.6882 Y32.65047
G1 X71.69206 Y32.6499
G1 X71.69584 Y32.64895
G1 X71.69952 Y32.64764
G1 X71.70304 Y32.64597
G1 X71.70639 Y32.64396
G1 X71.70953 Y32.64164
G1 X71.71447 Y32.63716
G1 X72.41718 Y31.93445
G3 X72.4967 Y31.9015 I0.0795 J0.0795
G1 X72.7952 Y31.9015
G1 X72.7952 Y31.8217
G1 X72.43636 Y31.8217
G1 X72.4297 Y31.82203
G1 X72.42584 Y31.8226
G1 X72.42206 Y31.82355
G1 X72.41838 Y31.82486
G1 X72.41486 Y31.82653
G1 X72.41151 Y31.82854
G1 X72.40837 Y31.83086
G1 X72.40343 Y31.83534
G1 X71.70072 Y32.53805
G3 X71.6212 Y32.5710 I-0.0795 J-0.0795
G1 X68.53813 Y32.571
G3 X68.4586 Y32.5380 I-0.0000 J-0.1125
G1 X67.43087 Y31.51034
G1 X67.42593 Y31.50586
G1 X67.42279 Y31.50354
G1 X67.41944 Y31.50153
G1 X67.41592 Y31.49986
G1 X67.41224 Y31.49855
G1 X67.40846 Y31.4976
G1 X67.4046 Y31.49703
G1 X67.39794 Y31.4967
G1 X66.4362 Y31.4967
G3 X66.3237 Y31.3842 I0.0000 J-0.1125
G1 X66.3237 Y22.45996
G1 X66.32337 Y22.4533
G1 X66.3228 Y22.44944
G1 X66.32185 Y22.44566
G1 X66.32054 Y22.44198
G2 X65.8995 Y22.0164 I-1.0620 J0.6297
G3 X65.8665 Y21.9369 I0.0795 J-0.0795
G1 X65.8665 Y13.909
G3 X65.9790 Y13.7965 I0.1125 J-0.0000
G1 X88.87637 Y13.7965
G3 X88.9559 Y13.8295 I0.0000 J0.1125
G1 X90.94995 Y15.82348
G3 X90.9829 Y15.9030 I-0.0795 J0.0795
G1 X90.9829 Y16.29374
G1 X90.98323 Y16.3004
G1 X90.9838 Y16.30426
G1 X90.98475 Y16.30804
G1 X90.98606 Y16.31172
G1 X90.98773 Y16.31524
G1 X90.98974 Y16.31859
G1 X90.99206 Y16.32173
G1 X90.99654 Y16.32667
G1 X91.61753 Y16.94766
G1 X91.62247 Y16.95214
G1 X91.62561 Y16.95446
G1 X91.62896 Y16.95647
G1 X91.63248 Y16.95814
G1 X91.63616 Y16.95945
G1 X91.63994 Y16.9604
G1 X91.6438 Y16.96097
G1 X91.65046 Y16.9613
G1 X94.58227 Y16.9613
G3 X94.6618 Y16.9943 I0.0000 J0.1125
G1 X95.47175 Y17.80418
G3 X95.5047 Y17.8837 I-0.0795 J0.0795
G1 X95.5047 Y23.3222
G3 X95.3922 Y23.4347 I-0.1125 J-0.0000
G1 X94.36002 Y23.4347
G3 X94.2509 Y23.3495 I0.0000 J-0.1125
G2 X93.6108 Y22.8251 I-0.6376 J0.1254
G1 X92.09236 Y22.8251
G2 X91.4897 Y23.7231 I-0.0026 J0.6495
G2 X92.0924 Y24.1241 I0.6003 J-0.2488
G1 X93.61084 Y24.1241
G2 X94.2540 Y23.5895 I0.0013 J-0.6526
G3 X94.3600 Y23.5145 I0.1061 J0.0375
G1 X95.3922 Y23.5145
G3 X95.5047 Y23.6270 I-0.0000 J0.1125
G1 X95.5047 Y30.12184
G1 X95.50503 Y30.1285
G1 X95.5056 Y30.13236
G1 X95.50655 Y30.13614
G1 X95.50786 Y30.13982
G1 X95.50953 Y30.14334
G1 X95.51154 Y30.14669
G1 X95.51386 Y30.14983
G3 X96.0994 Y30.7427 I-1.2059 J1.7766
G3 X96.1127 Y30.7957 I-0.0992 J0.0530
G1 X96.1127 Y54.88607
G3 X95.9571 Y54.9900 I-0.1125 J-0.0000
G1 X95.94717 Y54.98529
G1 X95.9377 Y54.97961
G1 X95.92883 Y54.97304
G1 X95.92065 Y54.96562
G1 X95.05837 Y54.10334
G1 X95.05343 Y54.09886
G1 X95.05029 Y54.09654
G1 X95.04694 Y54.09453
G1 X95.04342 Y54.09286
G2 X94.9620 Y54.0897 I-0.0471 J0.1642
G3 X94.8529 Y54.0045 I-0.0000 J-0.1125
G2 X94.2128 Y53.4801 I-0.6376 J0.1254
G1 X92.70813 Y53.4801
G3 X92.6286 Y53.4471 I-0.0000 J-0.1125
G1 X86.31677 Y47.13534
G1 X86.31183 Y47.13086
G1 X86.30869 Y47.12854
G1 X86.30534 Y47.12653
G1 X86.30182 Y47.12486
G1 X86.29814 Y47.12355
G1 X86.29436 Y47.1226
G1 X86.2905 Y47.12203
G1 X86.28384 Y47.1217
G1 X72.0242 Y47.1217
G1 X72.0242 Y47.2015
G1 X86.22347 Y47.2015
G3 X86.3030 Y47.2345 I0.0000 J0.1125
G1 X92.43547 Y53.3669
G3 X92.4040 Y53.5481 I-0.0795 J0.0795
G2 X92.2324 Y54.5888 I0.2867 J0.5817
G2 X92.6944 Y54.7791 I0.4597 J-0.4599
G1 X94.21284 Y54.7791
G2 X94.8560 Y54.2445 I0.0013 J-0.6526
G3 X95.0276 Y54.1885 I0.1078 J0.0394
G1 X95.03644 Y54.19504
G1 X95.04462 Y54.20245
G1 X96.01662 Y55.17445
G3 X96.0166 Y55.3335 I-0.0795 J0.0795
G1 X93.72034 Y57.62983
G1 X93.71586 Y57.63477
G1 X93.71354 Y57.63791
G1 X93.71153 Y57.64126
G1 X93.70986 Y57.64478
G1 X93.70855 Y57.64846
G1 X93.7076 Y57.65224
G1 X93.70703 Y57.6561
G1 X93.7067 Y57.66276
G1 X93.7067 Y65.22954
G1 X93.70703 Y65.2362
G1 X93.7076 Y65.24006
G1 X93.70855 Y65.24384
G1 X93.70986 Y65.24752
G1 X93.71153 Y65.25104
G1 X93.71354 Y65.25439
G1 X93.71586 Y65.25753
G1 X93.72034 Y65.26247
G1 X95.50255 Y67.04468
G3 X95.5355 Y67.1242 I-0.0795 J0.0795
G1 X95.5355 Y72.96177
G3 X95.5025 Y73.0413 I-0.1125 J0.0000
G1 X94.10332 Y74.44055
G3 X94.0238 Y74.4735 I-0.0795 J-0.0795
G1 X92.98736 Y74.4735
G2 X92.3847 Y75.3715 I-0.0026 J0.6495
G2 X92.9874 Y75.7725 I0.6003 J-0.2488
G1 X94.50584 Y75.7725
G2 X95.1085 Y74.8745 I0.0026 J-0.6495
G2 X94.4548 Y74.4735 I-0.6052 J0.2533
G3 X94.3509 Y74.3179 I-0.0000 J-0.1125
G1 X94.35561 Y74.30797
G1 X94.36129 Y74.2985
G1 X94.36786 Y74.28963
G1 X94.37528 Y74.28145
G1 X95.60166 Y73.05507
G1 X95.60614 Y73.05013
G1 X95.60846 Y73.04699
G1 X95.61047 Y73.04364
G1 X95.61214 Y73.04012
G1 X95.61345 Y73.03644
G1 X95.6144 Y73.03266
G1 X95.61497 Y73.0288
G1 X95.6153 Y73.02214
G1 X95.6153 Y67.06386
G1 X95.61497 Y67.0572
G1 X95.6144 Y67.05334
G1 X95.61345 Y67.04956
G1 X95.61214 Y67.04588
G1 X95.61047 Y67.04236
G1 X95.60846 Y67.03901
G1 X95.60614 Y67.03587
G1 X95.60166 Y67.03093
G1 X93.81945 Y65.24872
G3 X93.7865 Y65.1692 I0.0795 J-0.0795
G1 X93.7865 Y57.72313
G3 X93.8195 Y57.6436 I0.1125 J-0.0000
G1 X96.17886 Y55.28417
G1 X96.18334 Y55.27923
G1 X96.18566 Y55.27609
G1 X96.18767 Y55.27274
G1 X96.18934 Y55.26922
G1 X96.19065 Y55.26554
G1 X96.1916 Y55.26176
G1 X96.19217 Y55.2579
G1 X96.1925 Y55.25124
G1 X96.1925 Y30.73536
G1 X96.19217 Y30.7287
G1 X96.1916 Y30.72484
G1 X96.19065 Y30.72106
G1 X96.18934 Y30.71738
G1 X96.18767 Y30.71386
G1 X96.18566 Y30.71051
G1 X96.18334 Y30.70737
G3 X95.5978 Y30.1145 I1.2059 J-1.7766
G3 X95.5845 Y30.0615 I0.0992 J-0.0530
G1 X95.5845 Y17.82336
G1 X95.58417 Y17.8167
G1 X95.5836 Y17.81284
G1 X95.58265 Y17.80906
G1 X95.58134 Y17.80538
G1 X95.57967 Y17.80186
G1 X95.57766 Y17.79851
G1 X95.57534 Y17.79537
G1 X95.57086 Y17.79043
G1 X94.67557 Y16.89514
G1 X94.67063 Y16.89066
G1 X94.66749 Y16.88834
G1 X94.66414 Y16.88633
G1 X94.66062 Y16.88466
G1 X94.65694 Y16.88335
G1 X94.65316 Y16.8824
G1 X94.6493 Y16.88183
G1 X94.64264 Y16.8815
G1 X91.71083 Y16.8815
G3 X91.6313 Y16.8485 I0.0000 J-0.1125
G1 X91.09565 Y16.31292
G3 X91.0627 Y16.2334 I0.0795 J-0.0795
G1 X91.0627 Y15.84266
G1 X91.06237 Y15.836
G1 X91.0618 Y15.83214
G1 X91.06085 Y15.82836
G1 X91.05954 Y15.82468
G1 X91.05787 Y15.82116
G1 X91.05586 Y15.81781
G1 X91.05354 Y15.81467
G1 X91.04906 Y15.80973
G1 X88.96967 Y13.73034
G1 X88.96473 Y13.72586
G1 X88.96159 Y13.72354
G1 X88.95824 Y13.72153
G1 X88.95472 Y13.71986
G1 X88.95104 Y13.71855
G1 X88.94726 Y13.7176
G1 X88.9434 Y13.71703
G1 X88.93674 Y13.7167
G1 X60.00853 Y13.7167
G3 X59.9290 Y13.6837 I-0.0000 J-0.1125
G1 X59.51837 Y13.27314
G1 X59.51343 Y13.26866
G1 X59.51029 Y13.26634
G1 X59.50694 Y13.26433
G1 X59.50342 Y13.26266
G1 X59.49974 Y13.26135
G1 X59.49596 Y13.2604
G1 X59.4921 Y13.25983
G1 X59.48544 Y13.2595
G1 X44.18503 Y13.2595
G3 X44.1055 Y13.2265 I0.0000 J-0.1125
G1 X41.87845 Y10.99952
G3 X41.8455 Y10.9200 I0.0795 J-0.0795
G1 X41.8455 Y6.71388
G1 X41.81112 Y6.71556
G1 X41.80008 Y6.71556
G1 X41.7657 Y6.71388
G1 E-60
G0 Z5 F20000
G0 X72.0242 Y44.5217
G0 Z0.5 F20000
G1 E60
G1 X72.0242 Y44.6015
G1 X73.54757 Y44.6015
G3 X73.6271 Y44.6345 I-0.0000 J0.1125
G1 X73.71273 Y44.72006
G1 X73.71767 Y44.72454
G1 X73.71807 Y44.72483
G1 X73.72081 Y44.72686
G1 X73.72416 Y44.72887
G1 X73.72768 Y44.73054
G1 X73.73136 Y44.73185
G1 X73.73514 Y44.7328
G1 X73.739 Y44.73337
G1 X73.74566 Y44.7337
G1 X77.95477 Y44.7337
G3 X78.0343 Y44.7667 I-0.0000 J0.1125
G1 X78.21353 Y44.94586
G1 X78.21847 Y44.95034
G1 X78.21887 Y44.95063
G1 X78.22161 Y44.95266
G1 X78.22496 Y44.95467
G1 X78.22848 Y44.95634
G1 X78.23216 Y44.95765
G1 X78.23594 Y44.9586
G1 X78.2398 Y44.95917
G1 X78.24646 Y44.9595
G1 X89.52977 Y44.9595
G3 X89.6093 Y44.9925 I-0.0000 J0.1125
G1 X92.21953 Y47.60266
G1 X92.22447 Y47.60714
G1 X92.22761 Y47.60946
G1 X92.23096 Y47.61147
G1 X92.23448 Y47.61314
G1 X92.23816 Y47.61445
G1 X92.24194 Y47.6154
G1 X92.2458 Y47.61597
G1 X92.25246 Y47.6163
G1 X94.18797 Y47.6163
G3 X94.2675 Y47.6493 I0.0000 J0.1125
G1 X95.20955 Y48.59128
G3 X95.2425 Y48.6708 I-0.0795 J0.0795
G1 X95.2425 Y49.42837
G3 X95.2095 Y49.5079 I-0.1125 J0.0000
G1 X93.81032 Y50.90715
G3 X93.7308 Y50.9401 I-0.0795 J-0.0795
G1 X92.69436 Y50.9401
G2 X92.0917 Y51.8381 I-0.0026 J0.6495
G2 X92.6944 Y52.2391 I0.6003 J-0.2488
G1 X94.21284 Y52.2391
G2 X94.8155 Y51.3411 I0.0026 J-0.6495
G2 X94.1618 Y50.9401 I-0.6052 J0.2533
G3 X94.0579 Y50.7845 I-0.0000 J-0.1125
G1 X94.06261 Y50.77457
G1 X94.06829 Y50.7651
G1 X94.07486 Y50.75623
G1 X94.08228 Y50.74805
G1 X95.30866 Y49.52167
G1 X95.31314 Y49.51673
G1 X95.31546 Y49.51359
G1 X95.31747 Y49.51024
G1 X95.31914 Y49.50672
G1 X95.32045 Y49.50304
G1 X95.3214 Y49.49926
G1 X95.32197 Y49.4954
G1 X95.3223 Y49.48874
G1 X95.3223 Y48.61046
G1 X95.32197 Y48.6038
G1 X95.3214 Y48.59994
G1 X95.32045 Y48.59616
G1 X95.31914 Y48.59248
G1 X95.31747 Y48.58896
G1 X95.31546 Y48.58561
G1 X95.31314 Y48.58247
G1 X95.30866 Y48.57753
G1 X94.28127 Y47.55014
G1 X94.27633 Y47.54566
G1 X94.27319 Y47.54334
G1 X94.26984 Y47.54133
G1 X94.26632 Y47.53966
G1 X94.26264 Y47.53835
G1 X94.25886 Y47.5374
G1 X94.255 Y47.53683
G1 X94.24834 Y47.5365
G1 X92.31283 Y47.5365
G3 X92.2333 Y47.5035 I-0.0000 J-0.1125
G1 X89.62307 Y44.89334
G1 X89.61813 Y44.88886
G1 X89.61499 Y44.88654
G1 X89.61164 Y44.88453
G1 X89.60812 Y44.88286
G1 X89.60444 Y44.88155
G1 X89.60066 Y44.8806
G1 X89.5968 Y44.88003
G1 X89.59014 Y44.8797
G1 X81.219 Y44.8797
G3 X81.1065 Y44.7672 I-0.0000 J-0.1125
G1 X81.1065 Y43.34256
G3 X81.0267 Y43.3426 I-0.0399 J-0.3707
G1 X81.0267 Y44.7672
G3 X80.9142 Y44.8797 I-0.1125 J0.0000
G1 X78.30683 Y44.8797
G3 X78.2273 Y44.8467 I-0.0000 J-0.1125
G1 X78.04807 Y44.66754
G1 X78.04313 Y44.66306
G1 X78.04273 Y44.66277
G1 X78.03999 Y44.66074
G1 X78.03664 Y44.65873
G1 X78.03312 Y44.65706
G1 X78.02944 Y44.65575
G1 X78.02566 Y44.6548
G1 X78.0218 Y44.65423
G1 X78.01514 Y44.6539
G1 X73.80603 Y44.6539
G3 X73.7265 Y44.6209 I-0.0000 J-0.1125
G1 X73.64087 Y44.53534
G1 X73.63593 Y44.53086
G1 X73.63553 Y44.53057
G1 X73.63279 Y44.52854
G1 X73.62944 Y44.52653
G1 X73.62592 Y44.52486
G1 X73.62224 Y44.52355
G1 X73.61846 Y44.5226
G1 X73.6146 Y44.52203
G1 X73.60794 Y44.5217
G1 X72.0242 Y44.5217
G1 E-60
G0 Z5 F20000
G0 X2.19874 Y3.86803
G0 Z0.5 F20000
G1 E60
G1 X2.19426 Y3.87297
G1 X2.19194 Y3.87611
G1 X2.18993 Y3.87946
G1 X2.18826 Y3.88298
G1 X2.18695 Y3.88666
G1 X2.186 Y3.89044
G1 X2.18543 Y3.8943
G1 X2.1851 Y3.90096
G1 X2.1851 Y40.06064
G1 X2.18543 Y40.0673
G1 X2.186 Y40.07116
G1 X2.18695 Y40.07494
G1 X2.18826 Y40.07862
G1 X2.18993 Y40.08214
G1 X2.19194 Y40.08549
G1 X2.19426 Y40.08863
G1 X2.19688 Y40.09152
G1 X2.19977 Y40.09414
G1 X2.20291 Y40.09646
G1 X2.20626 Y40.09847
G1 X2.20978 Y40.10014
G1 X2.21346 Y40.10145
G1 X2.21724 Y40.1024
G1 X2.2211 Y40.10297
G1 X2.22776 Y40.1033
G1 X27.31557 Y40.1033
G3 X27.3951 Y40.1363 I0.0000 J0.1125
G1 X40.41173 Y53.15286
G1 X40.41667 Y53.15734
G1 X40.41981 Y53.15966
G1 X40.42316 Y53.16167
G1 X40.42668 Y53.16334
G1 X40.43036 Y53.16465
G1 X40.43414 Y53.1656
G1 X40.438 Y53.16617
G1 X40.44466 Y53.1665
G1 X74.22707 Y53.1665
G3 X74.3066 Y53.1995 I0.0000 J0.1125
G1 X92.87373 Y71.76655
G3 X92.8418 Y71.9480 I-0.0795 J0.0795
G2 X92.4447 Y72.2222 I0.1529 J0.6462
G2 X92.8579 Y73.2199 I0.5399 J0.3608
G1 X92.92095 Y73.22924
G1 X92.98736 Y73.2325
G1 X94.50584 Y73.2325
G2 X95.1085 Y72.3345 I0.0026 J-0.6495
G2 X94.5058 Y71.9335 I-0.6003 J0.2488
G1 X93.20013 Y71.9335
G3 X93.1206 Y71.9005 I0.0000 J-0.1125
G1 X74.32037 Y53.10034
G1 X74.31543 Y53.09586
G1 X74.31229 Y53.09354
G1 X74.30894 Y53.09153
G1 X74.30542 Y53.08986
G1 X74.30174 Y53.08855
G1 X74.29796 Y53.0876
G1 X74.2941 Y53.08703
G1 X74.28744 Y53.0867
G1 X40.50503 Y53.0867
G3 X40.4255 Y53.0537 I0.0000 J-0.1125
G1 X27.40887 Y40.03714
G1 X27.40393 Y40.03266
G1 X27.40079 Y40.03034
G1 X27.39744 Y40.02833
G1 X27.39392 Y40.02666
G1 X27.39024 Y40.02535
G1 X27.38646 Y40.0244
G1 X27.3826 Y40.02383
G1 X27.37594 Y40.0235
G1 X2.3774 Y40.0235
G3 X2.2649 Y39.9110 I-0.0000 J-0.1125
G1 X2.2649 Y3.96133
G3 X2.2979 Y3.8818 I0.1125 J0.0000
G1 X3.88178 Y2.29785
G3 X3.9613 Y2.2649 I0.0795 J0.0795
G1 X36.36787 Y2.2649
G3 X36.4474 Y2.2979 I-0.0000 J0.1125
G1 X38.05752 Y3.90794
G3 X38.1050 Y3.8425 I0.2965 J0.1652
G1 X36.46117 Y2.19874
G1 X36.45623 Y2.19426
G1 X36.45309 Y2.19194
G1 X36.44974 Y2.18993
G1 X36.44622 Y2.18826
G1 X36.44254 Y2.18695
G1 X36.43876 Y2.186
G1 X36.4349 Y2.18543
G1 X36.42824 Y2.1851
G1 X3.90096 Y2.1851
G1 X3.8943 Y2.18543
G1 X3.89044 Y2.186
G1 X3.88666 Y2.18695
G1 X3.88298 Y2.18826
G1 X3.87946 Y2.18993
G1 X3.87611 Y2.19194
G1 X3.87297 Y2.19426
G1 X3.86803 Y2.19874
G1 X2.19874 Y3.86803
G1 E-60
G0 Z5 F20000
G0 X70.00343 Y47.4696
G0 Z0.5 F20000
G1 E60
G1 X70.00372 Y47.47155
G1 X70.004 Y47.47346
G1 X70.00448 Y47.47537
G1 X70.00495 Y47.47724
G1 X70.00561 Y47.4791
G1 X70.00626 Y47.48092
G1 X70.00711 Y47.4827
G1 X70.00793 Y47.48444
G1 X70.00895 Y47.48614
G1 X70.00994 Y47.48779
G1 X70.01111 Y47.48938
G1 X70.01226 Y47.49093
G1 X70.01359 Y47.49239
G1 X70.01671 Y47.49584
G1 X70.19144 Y47.67047
G1 X70.19492 Y47.67362
G1 X70.19637 Y47.67494
G1 X70.19796 Y47.67611
G1 X70.19951 Y47.67726
G1 X70.2012 Y47.67828
G1 X70.20286 Y47.67927
G1 X70.20464 Y47.68011
G1 X70.20638 Y47.68094
G1 X70.20824 Y47.6816
G1 X70.21006 Y47.68225
G1 X70.21197 Y47.68273
G1 X70.21384 Y47.6832
G1 X70.21579 Y47.68349
G1 X70.2177 Y47.68377
G1 X70.21967 Y47.68387
G1 X70.22436 Y47.6841
G1 X71.28467 Y47.6841
G3 X71.3642 Y47.7171 I-0.0000 J0.1125
G1 X92.87373 Y69.22655
G3 X92.8418 Y69.4080 I-0.0795 J0.0795
G2 X92.4447 Y69.6822 I0.1529 J0.6462
G2 X92.8579 Y70.6799 I0.5399 J0.3608
G1 X92.92095 Y70.68924
G1 X92.98736 Y70.6925
G1 X94.50584 Y70.6925
G2 X95.1085 Y69.7945 I0.0026 J-0.6495
G2 X94.5058 Y69.3935 I-0.6003 J0.2488
G1 X93.20013 Y69.3935
G3 X93.1206 Y69.3605 I0.0000 J-0.1125
G1 X71.37797 Y47.61794
G1 X71.37303 Y47.61346
G1 X71.36989 Y47.61114
G1 X71.36654 Y47.60913
G1 X71.36302 Y47.60746
G1 X71.35934 Y47.60615
G1 X71.35556 Y47.6052
G1 X71.3517 Y47.60463
G1 X71.34504 Y47.6043
G1 X70.2847 Y47.6043
G3 X70.2052 Y47.5714 I0.0000 J-0.1125
G1 X70.11587 Y47.48212
G3 X70.0829 Y47.4025 I0.0795 J-0.0796
G1 X70.0829 Y44.32073
G3 X70.1159 Y44.2412 I0.1125 J0.0000
G1 X70.20518 Y44.15185
G3 X70.2847 Y44.1189 I0.0795 J0.0795
G1 X71.01584 Y44.1189
G1 X71.0225 Y44.11857
G1 X71.02636 Y44.118
G1 X71.03014 Y44.11705
G1 X71.03382 Y44.11574
G1 X71.03734 Y44.11407
G3 X70.4603 Y44.0894 I-0.2734 J-0.3663
G3 X70.3666 Y44.0391 I-0.0000 J-0.1124
G2 X70.2064 Y44.0423 I-0.0748 J0.2713
G2 X70.0049 Y44.2461 I0.3289 J0.5265
G1 X70.004 Y44.24984
G1 X70.00343 Y44.2537
G1 X70.0031 Y44.26036
G1 X70.0031 Y47.46294
G1 X70.00333 Y47.46767
G1 X70.00343 Y47.4696
G1 E-60
G0 Z5 F20000
G0 X78.4867 Y48.42256
G0 Z0.5 F20000
G1 E60
G1 X78.4867 Y52.28024
G1 X78.48703 Y52.2869
G1 X78.4876 Y52.29076
G1 X78.48855 Y52.29454
G1 X78.48986 Y52.29822
G1 X78.49153 Y52.30174
G1 X78.49354 Y52.30509
G1 X78.49586 Y52.30823
G1 X78.50034 Y52.31317
G1 X92.87373 Y66.68655
G3 X92.8418 Y66.8680 I-0.0795 J0.0795
G2 X92.4447 Y67.1422 I0.1529 J0.6462
G2 X92.8579 Y68.1399 I0.5399 J0.3608
G1 X92.92095 Y68.14924
G1 X92.98736 Y68.1525
G1 X94.50584 Y68.1525
G2 X95.1085 Y67.2545 I0.0026 J-0.6495
G2 X94.5058 Y66.8535 I-0.6003 J0.2488
G1 X93.20013 Y66.8535
G3 X93.1206 Y66.8205 I0.0000 J-0.1125
G1 X78.59945 Y52.29942
G3 X78.5665 Y52.2199 I0.0795 J-0.0795
G1 X78.5665 Y48.42256
G3 X78.4867 Y48.4226 I-0.0399 J-0.3707
G1 E-60
G0 Z5 F20000
G0 X72.0242 Y45.1717
G0 Z0.5 F20000
G1 E60
G1 X72.0242 Y45.2515
G1 X77.82597 Y45.2515
G3 X77.9055 Y45.2845 I-0.0000 J0.1125
G1 X78.06493 Y45.44386
G1 X78.06987 Y45.44834
G1 X78.07027 Y45.44863
G1 X78.07301 Y45.45066
G1 X78.07636 Y45.45267
G1 X78.07988 Y45.45434
G1 X78.08356 Y45.45565
G1 X78.08734 Y45.4566
G1 X78.0912 Y45.45717
G1 X78.09786 Y45.4575
G1 X89.38117 Y45.4575
G3 X89.4607 Y45.4905 I0.0000 J0.1125
G1 X92.03013 Y48.05986
G1 X92.03507 Y48.06434
G1 X92.03821 Y48.06666
G1 X92.04156 Y48.06867
G1 X92.04508 Y48.07034
G2 X92.3745 Y48.0735 I0.1710 J-0.6588
G3 X92.4540 Y48.1065 I-0.0000 J0.1125
G1 X92.58073 Y48.23315
G3 X92.5393 Y48.4185 I-0.0795 J0.0795
G2 X92.1189 Y49.3557 I0.1520 J0.6311
G2 X92.6944 Y49.6991 I0.5731 J-0.3065
G1 X94.21284 Y49.6991
G2 X94.8155 Y48.8011 I0.0026 J-0.6495
G2 X94.2128 Y48.4001 I-0.6003 J0.2488
G1 X92.90713 Y48.4001
G3 X92.8276 Y48.3671 I-0.0000 J-0.1125
G1 X92.46777 Y48.00734
G1 X92.46283 Y48.00286
G1 X92.45969 Y48.00054
G1 X92.45634 Y47.99853
G1 X92.45282 Y47.99686
G2 X92.1234 Y47.9937 I-0.1710 J0.6588
G3 X92.0439 Y47.9607 I0.0000 J-0.1125
G1 X89.47447 Y45.39134
G1 X89.46953 Y45.38686
G1 X89.46639 Y45.38454
G1 X89.46304 Y45.38253
G1 X89.45952 Y45.38086
G1 X89.45584 Y45.37955
G1 X89.45206 Y45.3786
G1 X89.4482 Y45.37803
G1 X89.44154 Y45.3777
G1 X78.15823 Y45.3777
G3 X78.0787 Y45.3447 I0.0000 J-0.1125
G1 X77.91927 Y45.18534
G1 X77.91433 Y45.18086
G1 X77.91393 Y45.18057
G1 X77.91119 Y45.17854
G1 X77.90784 Y45.17653
G1 X77.90432 Y45.17486
G1 X77.90064 Y45.17355
G1 X77.89686 Y45.1726
G1 X77.893 Y45.17203
G1 X77.88634 Y45.1717
G1 X72.0242 Y45.1717
G1 E-60
G0 Z5 F20000
G0 X94.71757 Y46.92155
G0 Z0.5 F20000
G1 E60
G2 X94.4041 Y45.8882 I-0.5020 J-0.4120
G1 X94.34228 Y45.87271
G1 X94.27925 Y45.86336
G1 X94.21284 Y45.8601
G1 X92.69436 Y45.8601
G2 X92.0917 Y46.7581 I-0.0026 J0.6495
G2 X92.6944 Y47.1591 I0.6003 J-0.2488
G1 X94.21284 Y47.1591
G2 X94.7176 Y46.9216 I0.0023 J-0.6500
G1 E-60
G0 Z5 F20000
G0 X71.2767 Y40.73727
G0 Z0.5 F20000
G1 E60
G3 X71.3097 Y40.6577 I0.1125 J0.0000
G1 X79.54098 Y32.42639
G2 X79.5695 Y32.3575 I-0.0641 J-0.0669
G1 X79.5695 Y19.469
G3 X79.6820 Y19.3565 I0.1125 J0.0000
G1 X91.92684 Y19.3565
G1 X91.9335 Y19.35617
G1 X91.93736 Y19.3556
G1 X91.94114 Y19.35465
G1 X91.94482 Y19.35334
G2 X92.2256 Y19.0771 I-0.4131 J-0.7006
G3 X92.3051 Y19.0441 I0.0795 J0.0795
G1 X93.61084 Y19.0441
G2 X94.2135 Y18.1461 I0.0026 J-0.6495
G2 X93.6108 Y17.7451 I-0.6003 J0.2488
G1 X92.09236 Y17.7451
G2 X91.4897 Y18.6431 I-0.0026 J0.6495
G2 X91.9373 Y19.0257 I0.5990 J-0.2477
G3 X91.9787 Y19.2110 I-0.0381 J0.1058
G3 X91.8991 Y19.2719 I-0.1341 J-0.0930
G1 X91.88842 Y19.27454
G1 X91.8775 Y19.27616
G1 X91.86647 Y19.2767
G1 X79.61287 Y19.2767
G3 X79.5291 Y19.2413 I0.0032 J-0.1243
G2 X79.3900 Y19.2989 I-0.0503 J0.0753
G1 X79.38867 Y19.30772
G1 X79.3881 Y19.31936
G1 X79.3881 Y32.27613
G3 X79.3551 Y32.3557 I-0.1125 J0.0000
G1 X71.12382 Y40.58701
G2 X71.0953 Y40.6559 I0.0641 J0.0669
G1 X71.0953 Y41.1338
G1 X71.2767 Y41.1338
G1 X71.2767 Y40.73727
G1 E-60
G0 Z5 F20000
G0 X38.75464 Y4.1775
G0 Z0.5 F20000
G1 E60
G1 X43.44447 Y4.1775
G3 X43.5240 Y4.2105 I0.0000 J0.1125
G1 X44.40453 Y5.09096
G1 X44.40947 Y5.09544
G1 X44.41261 Y5.09776
G1 X44.41596 Y5.09977
G1 X44.41948 Y5.10144
G1 X44.42316 Y5.10275
G1 X44.42694 Y5.1037
G1 X44.4308 Y5.10427
G1 X44.43746 Y5.1046
G1 X47.62185 Y5.1046
G3 X47.7014 Y5.1376 I-0.0000 J0.1125
G1 X47.79067 Y5.22687
G3 X47.8236 Y5.3064 I-0.0796 J0.0795
G1 X47.8236 Y7.23524
G1 X47.82393 Y7.2419
G1 X47.8245 Y7.24576
G1 X47.82545 Y7.24954
G1 X47.82676 Y7.25322
G1 X47.82843 Y7.25674
G1 X47.83044 Y7.26009
G1 X47.83276 Y7.26323
G1 X47.83724 Y7.26817
G1 X53.08193 Y12.51286
G1 X53.08687 Y12.51734
G1 X53.09001 Y12.51966
G1 X53.09336 Y12.52167
G1 X53.09688 Y12.52334
G1 X53.10056 Y12.52465
G1 X53.10434 Y12.5256
G1 X53.1082 Y12.52617
G1 X53.11486 Y12.5265
G1 X91.16347 Y12.5265
G3 X91.2430 Y12.5595 I0.0000 J0.1125
G1 X92.77875 Y14.09518
G3 X92.8117 Y14.1747 I-0.0795 J0.0795
G1 X92.8117 Y15.0926
G3 X92.6992 Y15.2051 I-0.1125 J-0.0000
G1 X92.09236 Y15.2051
G2 X91.4897 Y16.1031 I-0.0026 J0.6495
G2 X92.0924 Y16.5041 I0.6003 J-0.2488
G1 X93.61084 Y16.5041
G2 X94.2135 Y15.6061 I0.0026 J-0.6495
G2 X93.6108 Y15.2051 I-0.6003 J0.2488
G1 X93.004 Y15.2051
G3 X92.8915 Y15.0926 I-0.0000 J-0.1125
G1 X92.8915 Y14.11436
G1 X92.89117 Y14.1077
G1 X92.8906 Y14.10384
G1 X92.88965 Y14.10006
G1 X92.88834 Y14.09638
G1 X92.88667 Y14.09286
G1 X92.88466 Y14.08951
G1 X92.88234 Y14.08637
G1 X92.87786 Y14.08143
G1 X91.25677 Y12.46034
G1 X91.25183 Y12.45586
G1 X91.24869 Y12.45354
G1 X91.24534 Y12.45153
G1 X91.24182 Y12.44986
G1 X91.23814 Y12.44855
G1 X91.23436 Y12.4476
G1 X91.2305 Y12.44703
G1 X91.22384 Y12.4467
G1 X53.17523 Y12.4467
G3 X53.0957 Y12.4137 I0.0000 J-0.1125
G1 X47.93635 Y7.25442
G3 X47.9034 Y7.1749 I0.0795 J-0.0795
G1 X47.9034 Y5.24606
G1 X47.90317 Y5.24137
G1 X47.90307 Y5.23941
G1 X47.90279 Y5.23746
G1 X47.9025 Y5.23555
G1 X47.90202 Y5.23364
G1 X47.90156 Y5.23177
G1 X47.90089 Y5.22991
G1 X47.90024 Y5.22809
G1 X47.8994 Y5.22631
G1 X47.89857 Y5.22457
G1 X47.89756 Y5.22287
G1 X47.89657 Y5.22122
G1 X47.89539 Y5.21963
G1 X47.89425 Y5.21808
G1 X47.89292 Y5.21662
G1 X47.88977 Y5.21314
G1 X47.71517 Y5.03845
G1 X47.71166 Y5.03527
G1 X47.71023 Y5.03397
G1 X47.70865 Y5.03279
G1 X47.7071 Y5.03164
G1 X47.70541 Y5.03063
G1 X47.70375 Y5.02964
G1 X47.70197 Y5.02879
G1 X47.70023 Y5.02797
G1 X47.69837 Y5.0273
G1 X47.69655 Y5.02665
G1 X47.69464 Y5.02617
G1 X47.69277 Y5.0257
G1 X47.69082 Y5.02541
G1 X47.68891 Y5.02513
G1 X47.68694 Y5.02503
G1 X47.68229 Y5.0248
G1 X44.49783 Y5.0248
G3 X44.4183 Y4.9918 I0.0000 J-0.1125
G1 X43.53777 Y4.11134
G1 X43.53283 Y4.10686
G1 X43.52969 Y4.10454
G1 X43.52634 Y4.10253
G1 X43.52282 Y4.10086
G1 X43.51914 Y4.09955
G1 X43.51536 Y4.0986
G1 X43.5115 Y4.09803
G1 X43.50484 Y4.0977
G1 X38.76366 Y4.0977
G3 X38.7546 Y4.1775 I-0.3677 J-0.0012
G1 E-60
G0 Z5 F20000
G0 X89.44356 Y20.8287
G0 Z0.5 F20000
G1 E60
G3 X89.4436 Y20.9085 I-0.3707 J0.0399
G1 X91.33301 Y20.9085
G3 X91.4443 Y21.0045 I0.0000 J0.1125
G2 X92.0924 Y21.5841 I0.6454 J-0.0695
G1 X93.61084 Y21.5841
G2 X94.2135 Y20.6861 I0.0026 J-0.6495
G2 X93.6108 Y20.2851 I-0.6003 J0.2488
G1 X92.09236 Y20.2851
G2 X91.4617 Y20.7636 I-0.0008 J0.6537
G3 X91.3597 Y20.8287 I-0.1020 J-0.0474
G1 X89.44356 Y20.8287
G1 E-60
G0 Z5 F20000
G0 X81.72684 Y15.1173
G0 Z0.5 F20000
G1 E60
G2 X81.7973 Y15.0882 I0.0006 J-0.0983
G3 X81.8637 Y15.0665 I0.0664 J0.0908
G1 X87.92964 Y15.0665
G3 X87.9296 Y14.9867 I0.3707 J-0.0399
G1 X81.86367 Y14.9867
G3 X81.7799 Y14.9513 I0.0032 J-0.1243
G2 X81.7268 Y14.9359 I-0.0511 J0.0770
G1 X74.107 Y14.9359
G1 X74.107 Y15.1173
G1 X81.72684 Y15.1173
G1 E-60
G0 Z5 F20000
G0 X71.30737 Y43.4394
G0 Z0.5 F20000
G1 E60
G1 X71.32323 Y43.45526
G1 X71.32817 Y43.45974
G1 X71.33131 Y43.46206
G1 X71.33466 Y43.46407
G1 X71.33818 Y43.46574
G1 X71.34186 Y43.46705
G1 X71.34564 Y43.468
G1 X71.3495 Y43.46857
G1 X71.35616 Y43.4689
G1 X73.06157 Y43.4689
G3 X73.1411 Y43.5019 I-0.0000 J0.1125
G1 X73.90213 Y44.26286
G1 X73.90707 Y44.26734
G1 X73.91021 Y44.26966
G1 X73.91356 Y44.27167
G1 X73.91708 Y44.27334
G1 X73.92076 Y44.27465
G1 X73.92454 Y44.2756
G1 X73.9284 Y44.27617
G1 X73.93506 Y44.2765
G1 X78.15064 Y44.2765
G3 X78.1506 Y44.1967 I0.3707 J-0.0399
G1 X73.99543 Y44.1967
G3 X73.9159 Y44.1637 I-0.0000 J-0.1125
G1 X73.15487 Y43.40274
G1 X73.14993 Y43.39826
G1 X73.14679 Y43.39594
G1 X73.14344 Y43.39393
G1 X73.13992 Y43.39226
G1 X73.13624 Y43.39095
G1 X73.13246 Y43.39
G1 X73.1286 Y43.38943
G1 X73.12194 Y43.3891
G2 X71.9831 Y43.4139 I-0.5568 J0.5912
G3 X71.9117 Y43.4394 I-0.0714 J-0.0870
G1 X71.30737 Y43.4394
G1 E-60
G0 Z5 F20000
G0 X70.7397 Y23.78684
G0 Z0.5 F20000
G1 E60
G1 X70.74003 Y23.7935
G1 X70.7406 Y23.79736
G1 X70.74155 Y23.80114
G1 X70.74286 Y23.80482
G2 X70.8951 Y23.9547 I0.3857 J-0.2395
G1 X70.89884 Y23.9556
G1 X70.9027 Y23.95617
G1 X70.90936 Y23.9565
G1 X76.6772 Y23.9565
G3 X76.7897 Y24.0690 I0.0000 J0.1125
G1 X76.7897 Y31.60547
G3 X76.7567 Y31.6850 I-0.1125 J-0.0000
G1 X75.92423 Y32.51754
G3 X75.9807 Y32.5740 I-0.2339 J0.2903
G1 X76.85586 Y31.69877
G1 X76.86034 Y31.69383
G1 X76.86266 Y31.69069
G1 X76.86467 Y31.68734
G1 X76.86634 Y31.68382
G1 X76.86765 Y31.68014
G1 X76.8686 Y31.67636
G1 X76.86917 Y31.6725
G1 X76.8695 Y31.66584
G1 X76.8695 Y23.91936
G1 X76.86917 Y23.9127
G1 X76.8686 Y23.90884
G1 X76.86765 Y23.90506
G1 X76.86634 Y23.90138
G1 X76.86467 Y23.89786
G1 X76.86266 Y23.89451
G1 X76.86034 Y23.89137
G1 X76.85772 Y23.88848
G1 X76.85483 Y23.88586
G1 X76.85169 Y23.88354
G1 X76.84834 Y23.88153
G1 X76.84482 Y23.87986
G1 X76.84114 Y23.87855
G1 X76.83736 Y23.8776
G1 X76.8335 Y23.87703
G1 X76.82684 Y23.8767
G1 X70.96973 Y23.8767
G3 X70.8902 Y23.8437 I-0.0000 J-0.1125
G3 X70.8243 Y23.7591 I0.0970 J-0.1434
G1 X70.82166 Y23.74842
G1 X70.82004 Y23.7375
G1 X70.8195 Y23.72647
G1 X70.8195 Y20.9067
G1 X70.7397 Y20.9067
G1 X70.7397 Y23.78684
G1 E-60
G0 Z5 F20000
G0 X75.61064 Y25.1467
G0 Z0.5 F20000
G1 E60
G1 X74.1324 Y25.1467
G1 X74.1324 Y25.2265
G1 X75.61064 Y25.2265
G3 X75.6106 Y25.1467 I0.3707 J-0.0399
G1 E-60
G0 Z5 F20000
G0 X70.00343 Y41.6196
G0 Z0.5 F20000
G1 E60
G1 X70.00372 Y41.62154
G1 X70.004 Y41.62346
G1 X70.00448 Y41.62536
G1 X70.00495 Y41.62724
G1 X70.00561 Y41.62909
G1 X70.00626 Y41.63092
G1 X70.0071 Y41.63269
G1 X70.00793 Y41.63444
G1 X70.00894 Y41.63613
G1 X70.00994 Y41.63779
G1 X70.01111 Y41.63937
G1 X70.01226 Y41.64093
G1 X70.01358 Y41.64238
G1 X70.01673 Y41.64585
G1 X70.3478 Y41.97683
G1 X70.3478 Y41.8963
G1 X70.34834 Y41.88527
G1 X70.34996 Y41.87435
G1 X70.3516 Y41.8678
G1 X70.11586 Y41.63212
G3 X70.0829 Y41.5526 I0.0795 J-0.0796
G1 X70.0829 Y41.07073
G3 X70.1159 Y40.9912 I0.1125 J0.0000
G1 X74.74286 Y36.36417
G1 X74.74734 Y36.35923
G1 X74.74966 Y36.35609
G1 X74.75167 Y36.35274
G1 X74.75334 Y36.34922
G1 X74.75465 Y36.34554
G1 X74.7556 Y36.34176
G1 X74.75617 Y36.3379
G1 X74.7565 Y36.33124
G1 X74.7565 Y34.07936
G1 X74.75617 Y34.0727
G1 X74.7556 Y34.06884
G1 X74.75465 Y34.06506
G1 X74.75334 Y34.06138
G1 X74.75167 Y34.05786
G1 X74.74966 Y34.05451
G1 X74.74734 Y34.05137
G1 X74.74286 Y34.04643
G1 X73.98565 Y33.28922
G3 X73.9527 Y33.2097 I0.0795 J-0.0795
G1 X73.9527 Y31.29366
G1 X73.95247 Y31.28895
G1 X73.95237 Y31.287
G1 X73.95209 Y31.28507
G1 X73.9518 Y31.28314
G1 X73.95133 Y31.28125
G1 X73.95085 Y31.27936
G1 X73.95019 Y31.27752
G1 X73.94954 Y31.27568
G1 X73.9487 Y31.27392
G1 X73.94787 Y31.27216
G1 X73.94687 Y31.27048
G1 X73.94586 Y31.26881
G1 X73.9447 Y31.26724
G1 X73.94354 Y31.26567
G1 X73.94223 Y31.26423
G1 X73.93906 Y31.26073
G1 X72.46157 Y29.78314
G1 X72.45807 Y29.77997
G1 X72.45663 Y29.77866
G1 X72.45506 Y29.7775
G1 X72.45349 Y29.77634
G1 X72.45182 Y29.77533
G1 X72.45015 Y29.77433
G1 X72.44838 Y29.7735
G1 X72.44662 Y29.77266
G1 X72.44478 Y29.772
G1 X72.44294 Y29.77135
G1 X72.44105 Y29.77087
G1 X72.43916 Y29.7704
G1 X72.43723 Y29.77011
G1 X72.4353 Y29.76983
G1 X72.43335 Y29.76973
G1 X72.42864 Y29.7695
G1 X70.51253 Y29.7695
G3 X70.4330 Y29.7365 I0.0000 J-0.1125
G1 X67.16945 Y26.47302
G3 X67.1365 Y26.3935 I0.0795 J-0.0795
G1 X67.1365 Y23.60083
G3 X67.1695 Y23.5213 I0.1125 J-0.0000
G1 X69.94226 Y20.74847
G1 X69.94674 Y20.74353
G1 X69.94906 Y20.74039
G1 X69.95107 Y20.73704
G1 X69.95274 Y20.73352
G1 X69.95405 Y20.72984
G1 X69.955 Y20.72606
G1 X69.95557 Y20.7222
G1 X69.9559 Y20.71554
G1 X69.9559 Y19.24343
G3 X69.9889 Y19.1639 I0.1125 J0.0000
G1 X70.78046 Y18.37227
G1 X70.78494 Y18.36733
G1 X70.78726 Y18.36419
G1 X70.78927 Y18.36084
G1 X70.79094 Y18.35732
G1 X70.79225 Y18.35364
G1 X70.7932 Y18.34986
G1 X70.79377 Y18.346
G1 X70.7941 Y18.33934
G1 X70.7941 Y15.9029
G1 X70.7143 Y15.9029
G1 X70.7143 Y18.27897
G3 X70.6813 Y18.3585 I-0.1125 J-0.0000
G1 X69.88974 Y19.15013
G1 X69.88526 Y19.15507
G1 X69.88294 Y19.15821
G1 X69.88093 Y19.16156
G1 X69.87926 Y19.16508
G1 X69.87795 Y19.16876
G1 X69.877 Y19.17254
G1 X69.87643 Y19.1764
G1 X69.8761 Y19.18306
G1 X69.8761 Y20.65517
G3 X69.8431 Y20.7347 I-0.1125 J-0.0000
G1 X67.07034 Y23.50753
G1 X67.06586 Y23.51247
G1 X67.06354 Y23.51561
G1 X67.06153 Y23.51896
G1 X67.05986 Y23.52248
G1 X67.05855 Y23.52616
G1 X67.0576 Y23.52994
G1 X67.05703 Y23.5338
G1 X67.0567 Y23.54046
G1 X67.0567 Y26.45384
G1 X67.05703 Y26.4605
G1 X67.0576 Y26.46436
G1 X67.05855 Y26.46814
G1 X67.05986 Y26.47182
G1 X67.06153 Y26.47534
G1 X67.06354 Y26.47869
G1 X67.06586 Y26.48183
G1 X67.07034 Y26.48677
G1 X70.41923 Y29.83566
G1 X70.42417 Y29.84014
G1 X70.42731 Y29.84246
G1 X70.43066 Y29.84447
G1 X70.43418 Y29.84614
G1 X70.43786 Y29.84745
G1 X70.44164 Y29.8484
G1 X70.4455 Y29.84897
G1 X70.45216 Y29.8493
G1 X72.36827 Y29.8493
G3 X72.4478 Y29.8823 I0.0000 J0.1125
G1 X73.83995 Y31.27448
G3 X73.8729 Y31.3540 I-0.0796 J0.0795
G1 X73.8729 Y33.27004
G1 X73.87323 Y33.2767
G1 X73.8738 Y33.28056
G1 X73.87475 Y33.28434
G1 X73.87606 Y33.28802
G1 X73.87773 Y33.29154
G1 X73.87974 Y33.29489
G1 X73.88206 Y33.29803
G1 X73.88654 Y33.30297
G1 X74.64375 Y34.06018
G3 X74.6767 Y34.1397 I-0.0795 J0.0795
G1 X74.6767 Y36.27087
G3 X74.6437 Y36.3504 I-0.1125 J-0.0000
G1 X70.01674 Y40.97743
G1 X70.01226 Y40.98237
G1 X70.00994 Y40.98551
G1 X70.00793 Y40.98886
G1 X70.00626 Y40.99238
G1 X70.00495 Y40.99606
G1 X70.004 Y40.99984
G1 X70.00343 Y41.0037
G1 X70.0031 Y41.01036
G1 X70.0031 Y41.61294
G1 X70.00333 Y41.61766
G1 X70.00343 Y41.6196
G1 E-60
G0 Z5 F20000
G0 X72.41423 Y22.35254
G0 Z0.5 F20000
G1 E60
G3 X72.4707 Y22.4090 I-0.2339 J0.2903
G1 X73.59986 Y21.27977
G1 X73.60434 Y21.27483
G1 X73.60666 Y21.27169
G1 X73.60867 Y21.26834
G1 X73.61034 Y21.26482
G2 X73.6135 Y20.9067 I-0.7161 J-0.1854
G1 X73.5337 Y20.9067
G1 X73.5337 Y21.18647
G3 X73.5007 Y21.2660 I-0.1125 J0.0000
G1 X72.41423 Y22.35254
G1 E-60
G0 Z5 F20000
G0 X72.1367 Y17.19064
G0 Z0.5 F20000
G1 E60
G3 X72.2168 Y17.1907 I0.0399 J0.3710
G3 X72.2495 Y17.1180 I0.1113 J0.0063
G1 X73.29506 Y16.07237
G1 X73.29954 Y16.06743
G1 X73.30186 Y16.06429
G1 X73.30387 Y16.06094
G1 X73.30554 Y16.05742
G2 X73.3087 Y15.9029 I-0.3099 J-0.0836
G1 X73.2289 Y15.9029
G1 X73.2289 Y15.97907
G3 X73.1959 Y16.0586 I-0.1125 J0.0000
G1 X72.15034 Y17.10423
G1 X72.14586 Y17.10917
G1 X72.14354 Y17.11231
G1 X72.14153 Y17.11566
G1 X72.13986 Y17.11918
G2 X72.1367 Y17.1906 I0.1444 J0.0422
G1 E-60
G0 Z5 F20000
G0 X57.24638 Y33.71486
G0 Z0.5 F20000
G1 E60
G1 X57.24286 Y33.71653
G1 X57.23951 Y33.71854
G1 X57.23637 Y33.72086
G1 X57.23143 Y33.72534
G1 X49.33302 Y41.62375
G3 X49.2535 Y41.6567 I-0.0795 J-0.0795
G1 X46.5607 Y41.6567
G1 X46.5607 Y41.7365
G1 X49.31384 Y41.7365
G1 X49.3205 Y41.73617
G1 X49.32436 Y41.7356
G1 X49.32814 Y41.73465
G1 X49.33182 Y41.73334
G1 X49.33534 Y41.73167
G1 X49.33869 Y41.72966
G1 X49.34183 Y41.72734
G1 X49.34677 Y41.72286
G1 X57.24518 Y33.82445
G3 X57.3247 Y33.7915 I0.0795 J0.0795
G1 X71.7702 Y33.7915
G1 X71.7702 Y33.7117
G1 X57.26436 Y33.7117
G1 X57.2577 Y33.71203
G1 X57.25384 Y33.7126
G1 X57.25006 Y33.71355
G1 X57.24638 Y33.71486
G1 E-60
G0 Z5 F20000
G0 X65.66857 Y45.6838
G0 Z0.5 F20000
G1 E60
G1 X66.2729 Y45.6838
G3 X66.3666 Y45.7341 I0.0000 J0.1124
G2 X66.5269 Y45.7309 I0.0748 J-0.2715
G1 X66.53044 Y45.72927
G1 X66.53379 Y45.72726
G1 X66.53693 Y45.72494
G1 X66.54187 Y45.72046
G1 X69.61206 Y42.65027
G1 X69.61654 Y42.64533
G1 X69.61886 Y42.64219
G1 X69.62087 Y42.63884
G1 X69.62254 Y42.63532
G1 X69.62385 Y42.63164
G1 X69.6248 Y42.62786
G1 X69.62537 Y42.624
G1 X69.6257 Y42.61734
G1 X69.6257 Y40.88133
G3 X69.6587 Y40.8018 I0.1125 J0.0000
G1 X70.93286 Y39.52757
G1 X70.93734 Y39.52263
G1 X70.93966 Y39.51949
G1 X70.94167 Y39.51614
G1 X70.94334 Y39.51262
G1 X70.94465 Y39.50894
G1 X70.9456 Y39.50516
G1 X70.94617 Y39.5013
G1 X70.9465 Y39.49464
G1 X70.9465 Y35.72256
G3 X70.8667 Y35.7226 I-0.0399 J-0.3707
G1 X70.8667 Y39.43427
G3 X70.8337 Y39.5138 I-0.1125 J-0.0000
G1 X69.55954 Y40.78803
G1 X69.55506 Y40.79297
G1 X69.55274 Y40.79611
G1 X69.55073 Y40.79946
G1 X69.54906 Y40.80298
G1 X69.54775 Y40.80666
G1 X69.5468 Y40.81044
G1 X69.54623 Y40.8143
G1 X69.5459 Y40.82096
G1 X69.5459 Y42.55697
G3 X69.5129 Y42.6365 I-0.1125 J-0.0000
G1 X66.52812 Y45.62135
G3 X66.4486 Y45.6543 I-0.0795 J-0.0795
G1 X65.71736 Y45.6543
G1 X65.7107 Y45.65463
G1 X65.70684 Y45.6552
G1 X65.70306 Y45.65615
G1 X65.69938 Y45.65746
G1 X65.69586 Y45.65913
G1 X65.69251 Y45.66114
G1 X65.68937 Y45.66346
G1 X65.68443 Y45.66794
G1 X65.66857 Y45.6838
G1 E-60
G0 Z5 F20000
G0 X68.60423 Y31.83066
G0 Z0.5 F20000
G1 E60
G2 X68.6801 Y31.8997 I0.1374 J-0.0748
G1 X68.68384 Y31.9006
G1 X68.6877 Y31.90117
G1 X68.69436 Y31.9015
G1 X70.7452 Y31.9015
G1 X70.7452 Y31.8217
G1 X68.75473 Y31.8217
G3 X68.6607 Y31.7742 I0.0022 J-0.1213
G3 X68.6042 Y31.8307 I-0.2903 J-0.2339
G1 E-60
G0 Z5 F20000
G0 X68.60423 Y23.52766
G0 Z0.5 F20000
G1 E60
G1 X69.01943 Y23.94286
G1 X69.02437 Y23.94734
G1 X69.02751 Y23.94966
G1 X69.03086 Y23.95167
G1 X69.03438 Y23.95334
G2 X69.4465 Y23.9565 I0.2124 J-0.8239
G3 X69.5260 Y23.9895 I-0.0000 J0.1125
G1 X70.2208 Y24.68423
G1 X70.2208 Y24.57137
G1 X69.53977 Y23.89034
G1 X69.53483 Y23.88586
G1 X69.53169 Y23.88354
G1 X69.52834 Y23.88153
G1 X69.52482 Y23.87986
G2 X69.1127 Y23.8767 I-0.2124 J0.8239
G3 X69.0332 Y23.8437 I0.0000 J-0.1125
G1 X68.66066 Y23.47123
G3 X68.6042 Y23.5277 I-0.2903 J-0.2339
G1 E-60
G0 Z5 F20000
G0 X61.0024 Y30.69249
G0 Z0.5 F20000
G1 E60
G3 X61.0354 Y30.5935 I0.1182 J-0.0157
G1 X62.10218 Y29.52665
G3 X62.1817 Y29.4937 I0.0795 J0.0795
G1 X63.47324 Y29.4937
G1 X63.4799 Y29.49337
G1 X63.48376 Y29.4928
G1 X63.48754 Y29.49185
G1 X63.49122 Y29.49054
G1 X63.49474 Y29.48887
G1 X63.49809 Y29.48686
G1 X63.50123 Y29.48454
G1 X63.50617 Y29.48006
G1 X65.85286 Y27.13337
G1 X65.85734 Y27.12843
G1 X65.85966 Y27.12529
G1 X65.86167 Y27.12194
G1 X65.86334 Y27.11842
G1 X65.86465 Y27.11474
G1 X65.8656 Y27.11096
G1 X65.86617 Y27.1071
G1 X65.8665 Y27.10044
G1 X65.8665 Y22.64936
G1 X65.86617 Y22.6427
G1 X65.8656 Y22.63884
G1 X65.86465 Y22.63506
G1 X65.86334 Y22.63138
G1 X65.86167 Y22.62786
G1 X65.85966 Y22.62451
G1 X65.85734 Y22.62137
G1 X65.85286 Y22.61643
G1 X64.85066 Y21.61423
G3 X64.7942 Y21.6707 I-0.2903 J-0.2339
G1 X65.75375 Y22.63018
G3 X65.7867 Y22.7097 I-0.0795 J0.0795
G1 X65.7867 Y27.04007
G3 X65.7537 Y27.1196 I-0.1125 J0.0000
G1 X63.49242 Y29.38095
G3 X63.4129 Y29.4139 I-0.0795 J-0.0795
G1 X62.12136 Y29.4139
G1 X62.1147 Y29.41423
G1 X62.11084 Y29.4148
G1 X62.10706 Y29.41575
G1 X62.10338 Y29.41706
G1 X62.09986 Y29.41873
G1 X62.09651 Y29.42074
G1 X62.09337 Y29.42306
G1 X62.08843 Y29.42754
G1 X60.93624 Y30.57973
G1 X60.93176 Y30.58467
G1 X60.92944 Y30.58781
G1 X60.92743 Y30.59116
G1 X60.92576 Y30.59468
G2 X60.9226 Y30.6857 I0.1833 J0.0519
G3 X61.0024 Y30.6925 I0.0263 J0.1628
G1 E-60
G0 Z5 F20000
G0 X62.25423 Y41.99066
G0 Z0.5 F20000
G1 E60
G1 X64.33135 Y44.06778
G3 X64.3643 Y44.1473 I-0.0795 J0.0795
G1 X64.3643 Y44.21294
G1 X64.36453 Y44.21766
G1 X64.36463 Y44.2196
G1 X64.36492 Y44.22154
G1 X64.3652 Y44.22346
G1 X64.36568 Y44.22536
G1 X64.36615 Y44.22724
G1 X64.36681 Y44.22909
G1 X64.36746 Y44.23092
G1 X64.3683 Y44.23269
G1 X64.36913 Y44.23444
G1 X64.37014 Y44.23613
G1 X64.37114 Y44.23779
G1 X64.37231 Y44.23937
G1 X64.37346 Y44.24093
G1 X64.37478 Y44.24238
G1 X64.37793 Y44.24585
G1 X64.709 Y44.57683
G1 X64.709 Y44.4963
G1 X64.70954 Y44.48527
G1 X64.71116 Y44.47435
G1 X64.7128 Y44.4678
G1 X64.47706 Y44.23212
G3 X64.4441 Y44.1526 I0.0795 J-0.0796
G2 X64.4393 Y44.0655 I-0.1288 J-0.0365
G1 X64.43726 Y44.06211
G1 X64.43494 Y44.05897
G1 X64.43046 Y44.05403
G1 X62.31066 Y41.93423
G3 X62.2542 Y41.9907 I-0.2903 J-0.2339
G1 E-60
G0 Z5 F20000
G0 X56.89703 Y39.352
G0 Z0.5 F20000
G1 E60
G1 X56.89731 Y39.35393
G1 X56.8976 Y39.35586
G1 X56.89807 Y39.35775
G1 X56.89855 Y39.35964
G1 X56.89921 Y39.36148
G1 X56.89986 Y39.36332
G1 X56.9007 Y39.36508
G1 X56.90153 Y39.36684
G1 X56.90253 Y39.36852
G1 X56.90354 Y39.37019
G1 X56.9047 Y39.37176
G1 X56.90586 Y39.37333
G1 X56.90717 Y39.37477
G1 X56.91034 Y39.37827
G1 X64.55263 Y47.02046
G1 X64.55613 Y47.02363
G1 X64.55757 Y47.02494
G1 X64.55914 Y47.0261
G1 X64.56071 Y47.02726
G1 X64.56238 Y47.02827
G1 X64.56406 Y47.02927
G1 X64.56582 Y47.0301
G1 X64.56758 Y47.03094
G1 X64.56942 Y47.03159
G1 X64.57126 Y47.03225
G1 X64.57315 Y47.03273
G1 X64.57504 Y47.0332
G1 X64.57697 Y47.03349
G1 X64.5789 Y47.03377
G1 X64.58085 Y47.03387
G1 X64.58556 Y47.0341
G1 X64.72778 Y47.0341
G3 X64.8215 Y46.9838 I0.0937 J0.0621
G1 X65.42583 Y46.9838
G1 X65.40997 Y46.96794
G1 X65.40503 Y46.96346
G1 X65.40189 Y46.96114
G1 X65.39854 Y46.95913
G1 X65.39502 Y46.95746
G1 X65.39134 Y46.95615
G1 X65.38756 Y46.9552
G1 X65.3837 Y46.95463
G3 X64.6133 Y46.9495 I-0.3721 J-1.9510
G3 X64.5664 Y46.9214 I0.0327 J-0.1077
G1 X57.00945 Y39.36452
G3 X56.9765 Y39.2850 I0.0795 J-0.0796
G1 X56.9765 Y38.26256
G3 X56.8967 Y38.2626 I-0.0399 J-0.3707
G1 X56.8967 Y39.34534
G1 X56.89693 Y39.35005
G1 X56.89703 Y39.352
G1 E-60
G0 Z5 F20000
G0 X60.70703 Y42.512
G0 Z0.5 F20000
G1 E60
G1 X60.70731 Y42.51393
G1 X60.7076 Y42.51586
G1 X60.70807 Y42.51775
G1 X60.70855 Y42.51964
G1 X60.70921 Y42.52148
G1 X60.70986 Y42.52332
G1 X60.7107 Y42.52508
G1 X60.71153 Y42.52684
G1 X60.71253 Y42.52852
G1 X60.71354 Y42.53019
G1 X60.7147 Y42.53176
G1 X60.71586 Y42.53333
G1 X60.71717 Y42.53477
G1 X60.72034 Y42.53827
G1 X64.55263 Y46.37046
G1 X64.55613 Y46.37363
G1 X64.55757 Y46.37494
G1 X64.55914 Y46.3761
G1 X64.56071 Y46.37726
G1 X64.56238 Y46.37827
G1 X64.56406 Y46.37927
G1 X64.56582 Y46.3801
G1 X64.56758 Y46.38094
G1 X64.56942 Y46.3816
G1 X64.57126 Y46.38225
G1 X64.57315 Y46.38273
G1 X64.57504 Y46.3832
G1 X64.57697 Y46.38349
G1 X64.5789 Y46.38377
G1 X64.58085 Y46.38387
G1 X64.58556 Y46.3841
G1 X64.72778 Y46.3841
G3 X64.8215 Y46.3338 I0.0937 J0.0621
G1 X65.42583 Y46.3338
G1 X65.40997 Y46.31794
G1 X65.40503 Y46.31346
G1 X65.40189 Y46.31114
G1 X65.39854 Y46.30913
G1 X65.39502 Y46.30746
G1 X65.39134 Y46.30615
G1 X65.38756 Y46.3052
G1 X65.3837 Y46.30463
G3 X64.6133 Y46.2995 I-0.3721 J-1.9510
G3 X64.5664 Y46.2714 I0.0327 J-0.1077
G1 X60.81945 Y42.52452
G3 X60.7865 Y42.4450 I0.0795 J-0.0796
G1 X60.7865 Y36.99256
G3 X60.7067 Y36.9926 I-0.0399 J-0.3707
G1 X60.7067 Y42.50534
G1 X60.70693 Y42.51005
G1 X60.70703 Y42.512
G1 E-60
G0 Z5 F20000
G0 X59.70744 Y31.23734
G0 Z0.5 F20000
G1 E60
G3 X59.7707 Y31.2990 I-0.2211 J0.2900
G1 X59.78226 Y31.28737
G1 X59.78674 Y31.28243
G1 X59.78906 Y31.27929
G1 X59.79107 Y31.27594
G1 X59.79274 Y31.27242
G1 X59.79405 Y31.26874
G1 X59.795 Y31.26496
G1 X59.79557 Y31.2611
G3 X59.8045 Y30.5796 I1.3726 J-0.3229
G1 X59.80918 Y30.56959
G1 X59.81486 Y30.56012
G1 X59.82144 Y30.55126
G1 X59.82885 Y30.54308
G1 X61.30248 Y29.06945
G3 X61.3820 Y29.0365 I0.0795 J0.0795
G1 X63.28384 Y29.0365
G1 X63.2905 Y29.03617
G1 X63.29436 Y29.0356
G1 X63.29814 Y29.03465
G1 X63.30182 Y29.03334
G2 X63.5034 Y28.8266 I-0.2367 J-0.4324
G1 X63.50397 Y28.8227
G1 X63.5043 Y28.81604
G1 X63.5043 Y26.0375
G1 X63.4245 Y26.0375
G1 X63.4245 Y28.75567
G3 X63.3915 Y28.8352 I-0.1125 J0.0000
G1 X63.30302 Y28.92375
G3 X63.2235 Y28.9567 I-0.0795 J-0.0795
G1 X61.32166 Y28.9567
G1 X61.315 Y28.95703
G1 X61.31114 Y28.9576
G1 X61.30736 Y28.95855
G1 X61.30368 Y28.95986
G1 X61.30016 Y28.96153
G1 X61.29681 Y28.96354
G1 X61.29367 Y28.96586
G1 X61.28873 Y28.97034
G1 X59.72974 Y30.52933
G1 X59.72526 Y30.53427
G1 X59.72294 Y30.53741
G1 X59.72093 Y30.54076
G1 X59.71926 Y30.54428
G1 X59.71795 Y30.54796
G1 X59.717 Y30.55174
G1 X59.71643 Y30.5556
G3 X59.7075 Y31.2371 I-1.3726 J0.3229
G1 X59.70744 Y31.23734
G1 E-60
G0 Z5 F20000
G0 X46.2287 Y48.82809
G0 Z0.5 F20000
G1 E60
G3 X46.3085 Y48.8213 I0.0553 J0.1779
G2 X46.3053 Y48.6033 I-0.3665 J-0.1037
G1 X46.30367 Y48.59976
G1 X46.30166 Y48.59641
G1 X46.29934 Y48.59327
G1 X46.29486 Y48.58833
G1 X43.03945 Y45.33292
G3 X43.0065 Y45.2534 I0.0795 J-0.0795
G1 X43.0065 Y41.75973
G3 X43.0395 Y41.6802 I0.1125 J0.0000
G1 X53.15286 Y31.56677
G1 X53.15734 Y31.56183
G1 X53.15966 Y31.55869
G1 X53.16167 Y31.55534
G1 X53.16334 Y31.55182
G1 X53.16465 Y31.54814
G1 X53.1656 Y31.54436
G1 X53.16617 Y31.5405
G1 X53.1665 Y31.53384
G1 X53.1665 Y21.43973
G3 X53.1995 Y21.3602 I0.1125 J-0.0000
G1 X55.65018 Y18.90945
G3 X55.7297 Y18.8765 I0.0795 J0.0795
G1 X59.39954 Y18.8765
G1 X59.4062 Y18.87617
G1 X59.41006 Y18.8756
G1 X59.41384 Y18.87465
G1 X59.41752 Y18.87334
G2 X59.7288 Y18.5666 I-0.4588 J-0.7767
G3 X59.8083 Y18.5336 I0.0795 J0.0795
G1 X62.35674 Y18.5336
G1 X62.3634 Y18.53327
G1 X62.36726 Y18.5327
G1 X62.37104 Y18.53175
G1 X62.37472 Y18.53044
G1 X62.37824 Y18.52877
G1 X62.38159 Y18.52676
G1 X62.38473 Y18.52444
G1 X62.38967 Y18.51996
G1 X63.31286 Y17.59677
G1 X63.31734 Y17.59183
G1 X63.31966 Y17.58869
G1 X63.32167 Y17.58534
G1 X63.32334 Y17.58182
G1 X63.32465 Y17.57814
G1 X63.3256 Y17.57436
G1 X63.32617 Y17.5705
G1 X63.3265 Y17.56384
G1 X63.3265 Y15.8775
G1 X63.2467 Y15.8775
G1 X63.2467 Y17.50347
G3 X63.2137 Y17.5830 I-0.1125 J0.0000
G1 X62.37592 Y18.42085
G3 X62.2964 Y18.4538 I-0.0795 J-0.0795
G1 X59.74796 Y18.4538
G1 X59.7413 Y18.45413
G1 X59.73744 Y18.4547
G1 X59.73366 Y18.45565
G1 X59.72998 Y18.45696
G2 X59.4187 Y18.7637 I0.4588 J0.7767
G3 X59.3392 Y18.7967 I-0.0795 J-0.0795
G1 X55.66936 Y18.7967
G1 X55.6627 Y18.79703
G1 X55.65884 Y18.7976
G1 X55.65506 Y18.79855
G1 X55.65138 Y18.79986
G1 X55.64786 Y18.80153
G1 X55.64451 Y18.80354
G1 X55.64137 Y18.80586
G1 X55.63643 Y18.81034
G1 X53.10034 Y21.34643
G1 X53.09586 Y21.35137
G1 X53.09354 Y21.35451
G1 X53.09153 Y21.35786
G1 X53.08986 Y21.36138
G1 X53.08855 Y21.36506
G1 X53.0876 Y21.36884
G1 X53.08703 Y21.3727
G1 X53.0867 Y21.37936
G1 X53.0867 Y31.47347
G3 X53.0537 Y31.5530 I-0.1125 J-0.0000
G1 X42.94034 Y41.66643
G1 X42.93586 Y41.67137
G1 X42.93354 Y41.67451
G1 X42.93153 Y41.67786
G1 X42.92986 Y41.68138
G1 X42.92855 Y41.68506
G1 X42.9276 Y41.68884
G1 X42.92703 Y41.6927
G1 X42.9267 Y41.69936
G1 X42.9267 Y45.31374
G1 X42.92703 Y45.3204
G1 X42.9276 Y45.32426
G1 X42.92855 Y45.32804
G1 X42.92986 Y45.33172
G1 X42.93153 Y45.33524
G1 X42.93354 Y45.33859
G1 X42.93586 Y45.34173
G1 X42.94034 Y45.34667
G1 X46.19575 Y48.60208
G3 X46.2287 Y48.6816 I-0.0795 J0.0795
G1 X46.2287 Y48.82809
G1 E-60
G0 Z5 F20000
G0 X44.7845 Y41.20809
G0 Z0.5 F20000
G1 E60
G1 X44.7845 Y41.06163
G3 X44.8175 Y40.9821 I0.1125 J-0.0000
G1 X56.96286 Y28.83667
G1 X56.96734 Y28.83173
G1 X56.96966 Y28.82859
G1 X56.97167 Y28.82524
G1 X56.97334 Y28.82172
G1 X56.97465 Y28.81804
G1 X56.9756 Y28.81426
G1 X56.97617 Y28.8104
G1 X56.9765 Y28.80374
G1 X56.9765 Y20.47383
G3 X57.0095 Y20.3943 I0.1125 J0.0000
G1 X58.03708 Y19.36665
G3 X58.1166 Y19.3337 I0.0795 J0.0795
G1 X59.58894 Y19.3337
G1 X59.5956 Y19.33337
G1 X59.59946 Y19.3328
G1 X59.60324 Y19.33185
G1 X59.60692 Y19.33054
G2 X59.9182 Y19.0238 I-0.4588 J-0.7767
G3 X59.9977 Y18.9908 I0.0795 J0.0795
G1 X62.77857 Y18.9908
G3 X62.8581 Y19.0238 I0.0000 J0.1125
G1 X62.99785 Y19.16348
G3 X63.0308 Y19.2625 I-0.0867 J0.0839
G3 X63.1106 Y19.2557 I0.0553 J0.1779
G2 X63.1058 Y19.1612 I-0.1392 J-0.0403
G1 X63.10376 Y19.15781
G1 X63.10144 Y19.15467
G1 X63.09696 Y19.14973
G1 X62.87187 Y18.92464
G1 X62.86693 Y18.92016
G1 X62.86379 Y18.91784
G1 X62.86044 Y18.91583
G1 X62.85692 Y18.91416
G1 X62.85324 Y18.91285
G1 X62.84946 Y18.9119
G1 X62.8456 Y18.91133
G1 X62.83894 Y18.911
G1 X59.93736 Y18.911
G1 X59.9307 Y18.91133
G1 X59.92684 Y18.9119
G1 X59.92306 Y18.91285
G1 X59.91938 Y18.91416
G2 X59.6081 Y19.2209 I0.4588 J0.7767
G3 X59.5286 Y19.2539 I-0.0795 J-0.0795
G1 X58.05626 Y19.2539
G1 X58.0496 Y19.25423
G1 X58.04574 Y19.2548
G1 X58.04196 Y19.25575
G1 X58.03828 Y19.25706
G1 X58.03476 Y19.25873
G1 X58.03141 Y19.26074
G1 X58.02827 Y19.26306
G1 X58.02333 Y19.26754
G1 X56.91034 Y20.38053
G1 X56.90586 Y20.38547
G1 X56.90354 Y20.38861
G1 X56.90153 Y20.39196
G1 X56.89986 Y20.39548
G1 X56.89855 Y20.39916
G1 X56.8976 Y20.40294
G1 X56.89703 Y20.4068
G1 X56.8967 Y20.41346
G1 X56.8967 Y28.74337
G3 X56.8637 Y28.8229 I-0.1125 J-0.0000
G1 X44.71834 Y40.96833
G1 X44.71386 Y40.97327
G1 X44.71154 Y40.97641
G1 X44.70953 Y40.97976
G1 X44.70786 Y40.98328
G2 X44.7047 Y41.2013 I0.4365 J0.1154
G3 X44.7845 Y41.2081 I0.0263 J0.1628
G1 E-60
G0 Z5 F20000
G0 X60.9226 Y26.11054
G0 Z0.5 F20000
G1 E60
G1 X60.92293 Y26.1172
G1 X60.9235 Y26.12106
G1 X60.92445 Y26.12484
G1 X60.92576 Y26.12852
G1 X60.92743 Y26.13204
G1 X60.92944 Y26.13539
G1 X60.93176 Y26.13853
G1 X60.93624 Y26.14347
G1 X61.94375 Y27.15098
G3 X61.9767 Y27.2305 I-0.0795 J0.0795
G1 X61.9767 Y27.35064
G3 X62.0565 Y27.3506 I0.0399 J0.3707
G2 X62.0533 Y27.1522 I-0.3343 J-0.0939
G1 X62.05167 Y27.14866
G1 X62.04966 Y27.14531
G1 X62.04734 Y27.14217
G1 X62.04286 Y27.13723
G1 X61.03535 Y26.12972
G3 X61.0024 Y26.0307 I0.0867 J-0.0839
G3 X60.9226 Y26.0375 I-0.0553 J-0.1779
G1 X60.9226 Y26.11054
G1 E-60
G0 Z5 F20000
G0 X36.99256 Y13.7167
G0 Z0.5 F20000
G1 E60
G3 X36.9926 Y13.7965 I-0.3707 J0.0399
G1 X41.99794 Y13.7965
G1 X42.0046 Y13.79617
G1 X42.00846 Y13.7956
G1 X42.01224 Y13.79465
G1 X42.01592 Y13.79334
G1 X42.01944 Y13.79167
G1 X42.02279 Y13.78966
G1 X42.02593 Y13.78734
G1 X42.03087 Y13.78286
G1 X42.66728 Y13.14645
G3 X42.7468 Y13.1135 I0.0795 J0.0795
G1 X43.18637 Y13.1135
G3 X43.2659 Y13.1465 I-0.0000 J0.1125
G1 X43.90233 Y13.78286
G1 X43.90727 Y13.78734
G1 X43.91041 Y13.78966
G1 X43.91376 Y13.79167
G1 X43.91728 Y13.79334
G1 X43.92096 Y13.79465
G1 X43.92474 Y13.7956
G1 X43.9286 Y13.79617
G1 X43.93526 Y13.7965
G1 X59.23567 Y13.7965
G3 X59.3152 Y13.8295 I-0.0000 J0.1125
G1 X60.0608 Y14.57503
G1 X60.0608 Y14.46217
G1 X59.32897 Y13.73034
G1 X59.32403 Y13.72586
G1 X59.32089 Y13.72354
G1 X59.31754 Y13.72153
G1 X59.31402 Y13.71986
G1 X59.31034 Y13.71855
G1 X59.30656 Y13.7176
G1 X59.3027 Y13.71703
G1 X59.29604 Y13.7167
G1 X43.99563 Y13.7167
G3 X43.9161 Y13.6837 I0.0000 J-0.1125
G1 X43.27967 Y13.04734
G1 X43.27473 Y13.04286
G1 X43.27159 Y13.04054
G1 X43.26824 Y13.03853
G1 X43.26472 Y13.03686
G2 X42.6650 Y13.0385 I-0.2963 J1.3025
G1 X42.66161 Y13.04054
G1 X42.65847 Y13.04286
G1 X42.65353 Y13.04734
G1 X42.01712 Y13.68375
G3 X41.9376 Y13.7167 I-0.0795 J-0.0795
G1 X36.99256 Y13.7167
G1 E-60
G0 Z5 F20000
G0 X58.58256 Y20.0667
G0 Z0.5 F20000
G1 E60
G3 X58.5826 Y20.1465 I-0.3707 J0.0399
G1 X60.0608 Y20.1465
G1 X60.0608 Y20.0667
G1 X58.58256 Y20.0667
G1 E-60
G0 Z5 F20000
G0 X55.6267 Y32.43064
G0 Z0.5 F20000
G1 E60
G3 X55.7065 Y32.4306 I0.0399 J0.3707
G1 X55.7065 Y30.78623
G3 X55.7395 Y30.7067 I0.1125 J-0.0000
G1 X57.42006 Y29.02607
G1 X57.42454 Y29.02113
G1 X57.42686 Y29.01799
G1 X57.42887 Y29.01464
G1 X57.43054 Y29.01112
G1 X57.43185 Y29.00744
G1 X57.4328 Y29.00366
G1 X57.43337 Y28.9998
G1 X57.4337 Y28.99314
G1 X57.4337 Y20.98253
G3 X57.4667 Y20.9030 I0.1125 J-0.0000
G1 X57.96897 Y20.40066
G3 X57.9125 Y20.3442 I0.2339 J-0.2903
G1 X57.36754 Y20.88923
G1 X57.36306 Y20.89417
G1 X57.36074 Y20.89731
G1 X57.35873 Y20.90066
G1 X57.35706 Y20.90418
G1 X57.35575 Y20.90786
G1 X57.3548 Y20.91164
G1 X57.35423 Y20.9155
G1 X57.3539 Y20.92216
G1 X57.3539 Y28.93277
G3 X57.3209 Y29.0123 I-0.1125 J0.0000
G1 X55.64034 Y30.69293
G1 X55.63586 Y30.69787
G1 X55.63354 Y30.70101
G1 X55.63153 Y30.70436
G1 X55.62986 Y30.70788
G1 X55.62855 Y30.71156
G1 X55.6276 Y30.71534
G1 X55.62703 Y30.7192
G1 X55.6267 Y30.72586
G1 X55.6267 Y32.43064
G1 E-60
G0 Z5 F20000
G0 X49.33302 Y32.73375
G0 Z0.5 F20000
G1 E60
G3 X49.2535 Y32.7667 I-0.0795 J-0.0795
G1 X46.5607 Y32.7667
G1 X46.5607 Y32.8465
G1 X49.31384 Y32.8465
G1 X49.3205 Y32.84617
G1 X49.32436 Y32.8456
G1 X49.32814 Y32.84465
G1 X49.33182 Y32.84334
G1 X49.33534 Y32.84167
G1 X49.33869 Y32.83966
G1 X49.34183 Y32.83734
G1 X49.34677 Y32.83286
G1 X51.61897 Y30.56066
G3 X51.5625 Y30.5042 I0.2339 J-0.2903
G1 X49.33302 Y32.73375
G1 E-60
G0 Z5 F20000
G0 X46.8457 Y10.05284
G0 Z0.5 F20000
G1 E60
G1 X46.84603 Y10.0595
G1 X46.8466 Y10.06336
G1 X46.84755 Y10.06714
G1 X46.84886 Y10.07082
G1 X46.85053 Y10.07434
G1 X46.85254 Y10.07769
G1 X46.85486 Y10.08083
G1 X46.85934 Y10.08577
G1 X47.75254 Y10.97897
G3 X47.8090 Y10.9225 I0.2903 J0.2339
G1 X46.95845 Y10.07202
G3 X46.9255 Y9.9925 I0.0795 J-0.0795
G1 X46.9255 Y6.7157
G1 X46.8457 Y6.7157
G1 X46.8457 Y10.05284
G1 E-60
G0 Z5 F20000
G0 X15.52291 Y4.39986
G0 Z0.5 F20000
G1 E60
G1 X15.54842 Y4.42298
G1 X15.55622 Y4.43078
G1 X15.57934 Y4.45629
G1 X17.28058 Y2.75505
G3 X17.3601 Y2.7221 I0.0795 J0.0795
G1 X35.94317 Y2.7221
G3 X36.0227 Y2.7551 I0.0000 J0.1125
G1 X38.07253 Y4.80486
G1 X38.07747 Y4.80934
G1 X38.08061 Y4.81166
G1 X38.08396 Y4.81367
G1 X38.08748 Y4.81534
G1 X38.09116 Y4.81665
G1 X38.09494 Y4.8176
G1 X38.0988 Y4.81817
G1 X38.10546 Y4.8185
G1 X41.86147 Y4.8185
G3 X41.9410 Y4.8515 I-0.0000 J0.1125
G1 X42.81043 Y5.72086
G1 X42.81537 Y5.72534
G1 X42.81851 Y5.72766
G1 X42.82186 Y5.72967
G1 X42.82538 Y5.73134
G1 X42.82906 Y5.73265
G1 X42.83284 Y5.7336
G1 X42.8367 Y5.73417
G1 X42.84336 Y5.7345
G1 X46.2125 Y5.7345
G1 X46.2125 Y5.6547
G1 X42.90373 Y5.6547
G3 X42.8242 Y5.6217 I-0.0000 J-0.1125
G1 X41.95477 Y4.75234
G1 X41.94983 Y4.74786
G1 X41.94669 Y4.74554
G1 X41.94334 Y4.74353
G1 X41.93982 Y4.74186
G1 X41.93614 Y4.74055
G1 X41.93236 Y4.7396
G1 X41.9285 Y4.73903
G1 X41.92184 Y4.7387
G1 X38.16583 Y4.7387
G3 X38.0863 Y4.7057 I-0.0000 J-0.1125
G1 X36.03647 Y2.65594
G1 X36.03153 Y2.65146
G1 X36.02839 Y2.64914
G1 X36.02504 Y2.64713
G1 X36.02152 Y2.64546
G1 X36.01784 Y2.64415
G1 X36.01406 Y2.6432
G1 X36.0102 Y2.64263
G1 X36.00354 Y2.6423
G1 X17.29976 Y2.6423
G1 X17.2931 Y2.64263
G1 X17.28924 Y2.6432
G1 X17.28546 Y2.64415
G1 X17.28178 Y2.64546
G1 X17.27826 Y2.64713
G1 X17.27491 Y2.64914
G1 X17.27177 Y2.65146
G1 X17.26683 Y2.65594
G1 X15.52291 Y4.39986
G1 E-60
G0 Z5 F20000
G0 X30.2267 Y29.75678
G0 Z0.5 F20000
G1 E60
G1 X30.2267 Y34.92474
G1 X30.22703 Y34.9314
G1 X30.2276 Y34.93526
G1 X30.22855 Y34.93904
G1 X30.22986 Y34.94272
G1 X30.23153 Y34.94624
G1 X30.23354 Y34.94959
G1 X30.23586 Y34.95273
G1 X30.24034 Y34.95767
G1 X44.4525 Y49.16983
G1 X44.4525 Y49.05697
G1 X30.33945 Y34.94392
G3 X30.3065 Y34.8644 I0.0795 J-0.0795
G1 X30.3065 Y31.689
G3 X30.4190 Y31.5765 I0.1125 J-0.0000
G1 X43.32257 Y31.5765
G3 X43.4021 Y31.6095 I0.0000 J0.1125
G1 X44.4525 Y32.65983
G1 X44.4525 Y32.54697
G1 X43.41587 Y31.51034
G1 X43.41093 Y31.50586
G1 X43.40779 Y31.50354
G1 X43.40444 Y31.50153
G1 X43.40092 Y31.49986
G1 X43.39724 Y31.49855
G1 X43.39346 Y31.4976
G1 X43.3896 Y31.49703
G1 X43.38294 Y31.4967
G1 X30.419 Y31.4967
G3 X30.3065 Y31.3842 I0.0000 J-0.1125
G1 X30.3065 Y29.75678
G1 X30.27212 Y29.75846
G1 X30.26108 Y29.75846
G1 X30.2267 Y29.75678
G1 E-60
G0 Z5 F20000
G0 X31.60318 Y4.7657
G0 Z0.5 F20000
G1 E60
G1 X31.60486 Y4.80008
G1 X31.60486 Y4.81112
G1 X31.60318 Y4.8455
G1 X31.87154 Y4.8455
G1 X31.8782 Y4.84517
G1 X31.88206 Y4.8446
G1 X31.88584 Y4.84365
G1 X31.88952 Y4.84234
G1 X31.89304 Y4.84067
G1 X31.89639 Y4.83866
G1 X31.89953 Y4.83634
G1 X31.90447 Y4.83186
G1 X32.92468 Y3.81165
G3 X33.0042 Y3.7787 I0.0795 J0.0795
G1 X33.76177 Y3.7787
G3 X33.8413 Y3.8117 I0.0000 J0.1125
G1 X36.09853 Y6.06886
G1 X36.10347 Y6.07334
G1 X36.10661 Y6.07566
G1 X36.10996 Y6.07767
G1 X36.11348 Y6.07934
G1 X36.11716 Y6.08065
G1 X36.12094 Y6.0816
G1 X36.1248 Y6.08217
G1 X36.13146 Y6.0825
G1 X41.13432 Y6.0825
G1 X41.13264 Y6.04812
G1 X41.13264 Y6.03708
G1 X41.13432 Y6.0027
G1 X36.19183 Y6.0027
G3 X36.1123 Y5.9697 I-0.0000 J-0.1125
G1 X33.85507 Y3.71254
G1 X33.85013 Y3.70806
G1 X33.84699 Y3.70574
G1 X33.84364 Y3.70373
G1 X33.84012 Y3.70206
G1 X33.83644 Y3.70075
G1 X33.83266 Y3.6998
G1 X33.8288 Y3.69923
G1 X33.82214 Y3.6989
G1 X32.94386 Y3.6989
G1 X32.9372 Y3.69923
G1 X32.93334 Y3.6998
G1 X32.92956 Y3.70075
G1 X32.92588 Y3.70206
G1 X32.92236 Y3.70373
G1 X32.91901 Y3.70574
G1 X32.91587 Y3.70806
G1 X32.91093 Y3.71254
G1 X31.89072 Y4.73275
G3 X31.8112 Y4.7657 I-0.0795 J-0.0795
G1 X31.60318 Y4.7657
G1 E-60
G0 Z5 F20000
G0 X33.3431 Y5.56578
G0 Z0.5 F20000
G1 E60
G1 X33.3431 Y10.52024
G1 X33.34343 Y10.5269
G1 X33.344 Y10.53076
G1 X33.34495 Y10.53454
G1 X33.34626 Y10.53822
G1 X33.34793 Y10.54174
G1 X33.34994 Y10.54509
G1 X33.35226 Y10.54823
G1 X33.35674 Y10.55317
G1 X36.32254 Y13.51897
G3 X36.3790 Y13.4625 I0.2903 J0.2339
G1 X33.45585 Y10.53942
G3 X33.4229 Y10.4599 I0.0795 J-0.0795
G1 X33.4229 Y5.56578
G1 X33.38852 Y5.56746
G1 X33.37748 Y5.56746
G1 X33.3431 Y5.56578
G1 E-60
G0 Z5 F20000
G0 X29.06318 Y4.7657
G0 Z0.5 F20000
G1 E60
G3 X29.0601 Y4.8892 I-0.6383 J0.0461
G3 X29.1490 Y4.8455 I0.0887 J0.0682
G1 X30.08282 Y4.8455
G1 X30.08114 Y4.81112
G1 X30.08114 Y4.80008
G1 X30.08282 Y4.7657
G1 X29.06318 Y4.7657
G1 E-60
G0 Z5 F20000
G0 X29.0365 Y5.01014
G0 Z0.5 F20000
G1 E60
G3 X28.9567 Y5.1956 I-0.6822 J-0.1836
G1 X28.9567 Y27.72384
G1 X28.95703 Y27.7305
G1 X28.9576 Y27.73436
G1 X28.95855 Y27.73814
G1 X28.95986 Y27.74182
G1 X28.96153 Y27.74534
G1 X28.96354 Y27.74869
G1 X28.96586 Y27.75183
G1 X28.97034 Y27.75677
G1 X29.70086 Y28.48729
G1 X29.72398 Y28.46178
G1 X29.73178 Y28.45398
G1 X29.75729 Y28.43086
G1 X29.06945 Y27.74302
G3 X29.0365 Y27.6635 I0.0795 J-0.0795
G1 X29.0365 Y5.01014
G1 E-60
G0 Z5 F20000
G0 X12.4187 Y5.72504
G0 Z0.5 F20000
G1 E60
G1 X12.4187 Y6.80684
G1 X12.41903 Y6.8135
G1 X12.4196 Y6.81736
G1 X12.42055 Y6.82114
G1 X12.42186 Y6.82482
G1 X12.42353 Y6.82834
G1 X12.42554 Y6.83169
G1 X12.42786 Y6.83483
G1 X12.43048 Y6.83772
G1 X12.43337 Y6.84034
G1 X12.43651 Y6.84266
G1 X12.43986 Y6.84467
G1 X12.44338 Y6.84634
G1 X12.44706 Y6.84765
G1 X12.45084 Y6.8486
G1 X12.4547 Y6.84917
G1 X12.46136 Y6.8495
G1 X22.24754 Y6.8495
G1 X22.2542 Y6.84917
G1 X22.25806 Y6.8486
G1 X22.26184 Y6.84765
G1 X22.26552 Y6.84634
G1 X22.26904 Y6.84467
G1 X22.27239 Y6.84266
G1 X22.27553 Y6.84034
G1 X22.28047 Y6.83586
G1 X25.30468 Y3.81165
G3 X25.3842 Y3.7787 I0.0795 J0.0795
G1 X28.1506 Y3.7787
G3 X28.2631 Y3.8912 I-0.0000 J0.1125
G1 X28.2631 Y4.04542
G1 X28.29748 Y4.04374
G1 X28.30852 Y4.04374
G1 X28.3429 Y4.04542
G1 X28.3429 Y3.74156
G1 X28.34257 Y3.7349
G1 X28.342 Y3.73104
G1 X28.34105 Y3.72726
G1 X28.33974 Y3.72358
G1 X28.33807 Y3.72006
G1 X28.33606 Y3.71671
G1 X28.33374 Y3.71357
G1 X28.33112 Y3.71068
G1 X28.32823 Y3.70806
G1 X28.32509 Y3.70574
G1 X28.32174 Y3.70373
G1 X28.31822 Y3.70206
G1 X28.31454 Y3.70075
G1 X28.31076 Y3.6998
G1 X28.3069 Y3.69923
G1 X28.30024 Y3.6989
G1 X25.32386 Y3.6989
G1 X25.3172 Y3.69923
G1 X25.31334 Y3.6998
G1 X25.30956 Y3.70075
G1 X25.30588 Y3.70206
G1 X25.30236 Y3.70373
G1 X25.29901 Y3.70574
G1 X25.29587 Y3.70806
G1 X25.29093 Y3.71254
G1 X22.26672 Y6.73675
G3 X22.1872 Y6.7697 I-0.0795 J-0.0795
G1 X12.611 Y6.7697
G3 X12.4985 Y6.6572 I0.0000 J-0.1125
G1 X12.4985 Y5.72651
G1 X12.47912 Y5.72746
G1 X12.46808 Y5.72746
G1 X12.4187 Y5.72504
G1 E-60
G0 Z5 F20000
G0 X3.73843 Y35.77034
G0 Z0.5 F20000
G1 E60
G1 X3.76393 Y35.79346
G1 X3.77174 Y35.80127
G1 X3.79486 Y35.82677
G1 X5.52486 Y34.09677
G1 X5.52934 Y34.09183
G1 X5.53166 Y34.08869
G1 X5.53367 Y34.08534
G1 X5.53534 Y34.08182
G1 X5.53665 Y34.07814
G1 X5.5376 Y34.07436
G1 X5.53817 Y34.0705
G1 X5.5385 Y34.06384
G1 X5.5385 Y10.26367
G3 X5.5785 Y10.1723 I0.1464 J0.0096
G2 X5.5893 Y10.1268 I-0.0828 J-0.0438
G1 X5.5893 Y7.99293
G3 X5.6223 Y7.9134 I0.1125 J-0.0000
G1 X6.18318 Y7.35245
G3 X6.2627 Y7.3195 I0.0795 J0.0795
G1 X23.28624 Y7.3195
G1 X23.2929 Y7.31917
G1 X23.29676 Y7.3186
G1 X23.30054 Y7.31765
G1 X23.30422 Y7.31634
G1 X23.30774 Y7.31467
G1 X23.31109 Y7.31266
G1 X23.31423 Y7.31034
G1 X23.31917 Y7.30586
G1 X25.25369 Y5.37134
G1 X25.22818 Y5.34822
G1 X25.22038 Y5.34042
G1 X25.19726 Y5.31491
G1 X23.30542 Y7.20675
G3 X23.2259 Y7.2397 I-0.0795 J-0.0795
G1 X6.20236 Y7.2397
G1 X6.1957 Y7.24003
G1 X6.19184 Y7.2406
G1 X6.18806 Y7.24155
G1 X6.18438 Y7.24286
G2 X5.7813 Y7.6414 I0.5960 J1.0058
G3 X5.5979 Y7.6049 I-0.0795 J-0.0795
G3 X5.5898 Y6.9337 I1.3357 J-0.3516
G3 X5.6223 Y6.8652 I0.1120 J0.0110
G1 X6.9231 Y5.56437
G3 X6.7948 Y5.4361 I0.4359 J-0.5641
G1 X5.43642 Y6.79451
G2 X5.4079 Y6.8634 I0.0641 J0.0669
G1 X5.4079 Y10.12684
G2 X5.4420 Y10.2047 I0.1119 J-0.0027
G3 X5.4587 Y10.2637 I-0.0958 J0.0590
G1 X5.4587 Y34.00347
G3 X5.4257 Y34.0830 I-0.1125 J0.0000
G1 X3.73843 Y35.77034
G1 E-60
G0 Z5 F20000
G0 X3.90238 Y38.14639
G0 Z0.5 F20000
G1 E60
G3 X3.9588 Y38.2028 I-0.0449 J0.1013
G1 X13.09218 Y29.06945
G3 X13.1717 Y29.0365 I0.0795 J0.0795
G1 X14.52042 Y29.0365
G1 X14.51874 Y29.00212
G1 X14.51874 Y28.99108
G1 X14.52042 Y28.9567
G1 X13.11136 Y28.9567
G1 X13.1047 Y28.95703
G1 X13.10084 Y28.9576
G1 X13.09706 Y28.95855
G1 X13.09338 Y28.95986
G1 X13.08986 Y28.96153
G1 X13.08651 Y28.96354
G1 X13.08337 Y28.96586
G1 X13.07843 Y28.97034
G1 X3.90238 Y38.14639
G1 E-60
G0 Z5 F20000
G0 X10.68969 Y4.8749
G0 Z0.5 F20000
G1 E60
G3 X10.6897 Y5.0563 I-0.7071 J0.0907
G1 X11.71751 Y5.0563
G3 X11.7175 Y4.8749 I0.7071 J-0.0907
G1 X10.68969 Y4.8749
G1 E-60
G0 Z5 F20000
G0 X94.09733 Y23.4746
G0 Z0.5 F20000
G1 E60
G1 X94.08453 Y23.45014
G1 X94.07367 Y23.42353
G1 X94.06537 Y23.39601
G2 X93.6061 Y23.0164 I-0.4531 J0.0805
G1 X92.09706 Y23.01635
G2 X91.6666 Y23.6498 I-0.0069 J0.4583
G2 X92.0971 Y23.9329 I0.4240 J-0.1760
G1 X93.60614 Y23.93285
G2 X94.0654 Y23.5532 I0.0061 J-0.4601
G1 X94.07367 Y23.52567
G1 X94.08453 Y23.49906
G1 X94.09733 Y23.4746
G1 E-60
G0 Z5 F20000
G0 X94.69933 Y54.1296
G0 Z0.5 F20000
G1 E60
G1 X94.68653 Y54.10514
G1 X94.67567 Y54.07853
G1 X94.66737 Y54.05101
G2 X94.2081 Y53.6714 I-0.4531 J0.0805
G1 X92.70813 Y53.67135
G3 X92.5854 Y53.6452 I-0.0015 J-0.2936
G3 X92.4758 Y53.7258 I-0.2304 J-0.1985
G2 X92.4011 Y54.4835 I0.2158 J0.4038
G2 X92.6991 Y54.5879 I0.2924 J-0.3575
G1 X94.20814 Y54.58785
G2 X94.6674 Y54.2082 I0.0061 J-0.4601
G1 X94.67567 Y54.18067
G1 X94.68653 Y54.15406
G1 X94.69933 Y54.1296
G1 E-60
G0 Z5 F20000
G0 X92.7179 Y48.52498
G0 Z0.5 F20000
G1 E60
G3 X92.5587 Y48.6114 I-0.2191 J-0.2137
G2 X92.3377 Y49.3401 I0.1329 J0.4382
G2 X92.6991 Y49.5079 I0.3554 J-0.2924
G1 X94.20814 Y49.50785
G2 X94.6386 Y48.8744 I0.0069 J-0.4583
G2 X94.2081 Y48.5914 I-0.4240 J0.1760
G1 X92.90713 Y48.59135
G3 X92.7179 Y48.5250 I-0.0004 J-0.3018
G1 E-60
G0 Z5 F20000
G0 X93.94634 Y51.0416
G0 Z0.5 F20000
G1 E60
G3 X93.7308 Y51.1314 I-0.2156 J-0.2140
G1 X92.69906 Y51.13135
G2 X92.2686 Y51.7648 I-0.0069 J0.4583
G2 X92.6991 Y52.0479 I0.4240 J-0.1760
G1 X94.20814 Y52.04785
G2 X94.6386 Y51.4144 I0.0069 J-0.4583
G2 X94.2081 Y51.1314 I-0.4240 J0.1760
G3 X93.9691 Y51.0624 I-0.0366 J-0.3220
G1 X93.94704 Y51.04238
G1 X93.94634 Y51.0416
G1 E-60
G0 Z5 F20000
G0 X93.01099 Y69.51845
G0 Z0.5 F20000
G1 E60
G3 X92.8517 Y69.6048 I-0.2197 J-0.2151
G2 X92.6307 Y70.3335 I0.1329 J0.4382
G2 X92.9921 Y70.5012 I0.3554 J-0.2924
G1 X94.50114 Y70.50125
G2 X94.9316 Y69.8678 I0.0069 J-0.4583
G2 X94.5011 Y69.5847 I-0.4240 J0.1760
G1 X93.20013 Y69.58475
G3 X93.0110 Y69.5184 I-0.0004 J-0.3018
G1 E-60
G0 Z5 F20000
G0 X94.23934 Y74.575
G0 Z0.5 F20000
G1 E60
G3 X94.0238 Y74.6647 I-0.2156 J-0.2140
G1 X92.99206 Y74.66475
G2 X92.5616 Y75.2982 I-0.0069 J0.4583
G2 X92.9921 Y75.5812 I0.4240 J-0.1760
G1 X94.50114 Y75.58125
G2 X94.9316 Y74.9478 I0.0069 J-0.4583
G2 X94.5011 Y74.6647 I-0.4240 J0.1760
G3 X94.2621 Y74.5958 I-0.0366 J-0.3220
G1 X94.24004 Y74.57578
G1 X94.23934 Y74.575
G1 E-60
G0 Z5 F20000
G0 X93.01099 Y72.05845
G0 Z0.5 F20000
G1 E60
G3 X92.8517 Y72.1448 I-0.2197 J-0.2151
G2 X92.6307 Y72.8735 I0.1329 J0.4382
G2 X92.9921 Y73.0413 I0.3554 J-0.2924
G1 X94.50114 Y73.04125
G2 X94.9316 Y72.4078 I0.0069 J-0.4583
G2 X94.5011 Y72.1247 I-0.4240 J0.1760
G1 X93.20013 Y72.12475
G3 X93.0110 Y72.0584 I-0.0004 J-0.3018
G1 E-60
G0 Z5 F20000
G0 X93.01099 Y66.97845
G0 Z0.5 F20000
G1 E60
G3 X92.8517 Y67.0648 I-0.2197 J-0.2151
G2 X92.6307 Y67.7935 I0.1329 J0.4382
G2 X92.9921 Y67.9613 I0.3554 J-0.2924
G1 X94.50114 Y67.96125
G2 X94.9316 Y67.3278 I0.0069 J-0.4583
G2 X94.5011 Y67.0447 I-0.4240 J0.1760
G1 X93.20013 Y67.04475
G3 X93.0110 Y66.9784 I-0.0004 J-0.3018
G1 E-60
G0 Z5 F20000
G0 X94.56955 Y46.80008
G0 Z0.5 F20000
G1 E60
G2 X94.3485 Y46.0714 I-0.3539 J-0.2905
G1 X94.30493 Y46.06051
G1 X94.26048 Y46.05392
G1 X94.20814 Y46.05135
G1 X92.69906 Y46.05135
G2 X92.2686 Y46.6848 I-0.0069 J0.4583
G2 X92.6991 Y46.9678 I0.4240 J-0.1760
G1 X94.20814 Y46.96785
G2 X94.5695 Y46.8001 I0.0062 J-0.4598
G1 E-60
G0 Z5 F20000
G0 X92.8516 Y15.35496
G0 Z0.5 F20000
G1 E60
G3 X92.6992 Y15.3963 I-0.1516 J-0.2569
G1 X92.09706 Y15.39635
G2 X91.6666 Y16.0298 I-0.0069 J0.4583
G2 X92.0971 Y16.3128 I0.4240 J-0.1760
G1 X93.60614 Y16.31285
G2 X94.0366 Y15.6794 I0.0069 J-0.4583
G2 X93.6061 Y15.3963 I-0.4240 J0.1760
G1 X93.004 Y15.39635
G3 X92.8516 Y15.3550 I-0.0008 J-0.2983
G1 E-60
G0 Z5 F20000
G0 X92.1159 Y18.91922
G0 Z0.5 F20000
G1 E60
G3 X92.3051 Y18.8528 I0.1890 J0.2359
G1 X93.60614 Y18.85285
G2 X94.0366 Y18.2194 I0.0069 J-0.4583
G2 X93.6061 Y17.9363 I-0.4240 J0.1760
G1 X92.09706 Y17.93635
G2 X91.6666 Y18.5698 I-0.0069 J0.4583
G2 X92.0022 Y18.8457 I0.4300 J-0.1809
G3 X92.1159 Y18.9192 I-0.0977 J0.2759
G1 E-60
G0 Z5 F20000
G0 X91.60764 Y20.89149
G0 Z0.5 F20000
G1 E60
G3 X91.6405 Y21.0239 I-0.3512 J0.1575
G2 X92.0971 Y21.3929 I0.4499 J-0.0898
G1 X93.60614 Y21.39285
G2 X94.0366 Y20.7594 I0.0069 J-0.4583
G2 X93.6061 Y20.4764 I-0.4240 J0.1760
G1 X92.09706 Y20.47635
G2 X91.6461 Y20.8175 I-0.0059 J0.4609
G1 X91.6352 Y20.84414
G1 X91.62187 Y20.86961
G1 X91.60764 Y20.89149
G1 E-60
G0 Z5 F20000
G0 X93.88954 Y23.4746
G0 Z0.5 F20000
G1 E60
G1 X93.87986 Y23.44248
G2 X93.6014 Y23.2076 I-0.2690 J0.0364
G1 X92.10175 Y23.2076
G2 X91.8435 Y23.5765 I-0.0111 J0.2671
G2 X92.1018 Y23.7416 I0.2480 J-0.1035
G1 X93.60145 Y23.7416
G2 X93.8799 Y23.5067 I0.0094 J-0.2713
G1 X93.88954 Y23.4746
G1 E-60
G0 Z5 F20000
G0 X94.49154 Y54.1296
G0 Z0.5 F20000
G1 E60
G1 X94.48186 Y54.09748
G2 X94.2034 Y53.8626 I-0.2690 J0.0364
G1 X92.70813 Y53.8626
G1 X92.65961 Y53.86022
G1 X92.63252 Y53.8562
G1 X92.6115 Y53.87037
G2 X92.4701 Y53.9816 I0.1127 J0.2888
G2 X92.6396 Y54.3909 I0.2215 J0.1480
G1 X92.66549 Y54.39472
G1 X92.70375 Y54.3966
G1 X94.20345 Y54.3966
G2 X94.4819 Y54.1617 I0.0094 J-0.2713
G1 X94.49154 Y54.1296
G1 E-60
G0 Z5 F20000
G0 X93.0249 Y69.7434
G0 Z0.5 F20000
G1 E60
G1 X93.00382 Y69.75452
G1 X92.9599 Y69.77254
G2 X92.8156 Y69.8371 I0.0628 J0.3340
G2 X92.8590 Y70.2779 I0.1690 J0.2059
G2 X92.9968 Y70.3100 I0.1304 J-0.2485
G1 X94.49645 Y70.31
G2 X94.7547 Y69.9411 I0.0111 J-0.2671
G2 X94.4964 Y69.7760 I-0.2480 J0.1035
G1 X93.20013 Y69.776
G1 X93.15161 Y69.77362
G1 X93.10356 Y69.76649
G1 X93.05644 Y69.75469
G1 X93.0249 Y69.7434
G1 E-60
G0 Z5 F20000
G0 X94.2393 Y74.80598
G0 Z0.5 F20000
G1 E60
G3 X94.0238 Y74.8560 I-0.2146 J-0.4351
G1 X92.99675 Y74.856
G2 X92.7385 Y75.2249 I-0.0111 J0.2671
G2 X92.9968 Y75.3900 I0.2480 J-0.1035
G1 X94.49645 Y75.39
G2 X94.7547 Y75.0211 I0.0111 J-0.2671
G2 X94.4964 Y74.8560 I-0.2480 J0.1035
G3 X94.2393 Y74.8060 I-0.0344 J-0.5093
G1 E-60
G0 Z5 F20000
G0 X92.73187 Y48.74999
G0 Z0.5 F20000
G1 E60
G1 X92.71491 Y48.75918
G1 X92.66903 Y48.77838
G2 X92.5226 Y48.8437 I0.0639 J0.3402
G2 X92.5660 Y49.2845 I0.1690 J0.2059
G2 X92.7038 Y49.3166 I0.1304 J-0.2485
G1 X94.20345 Y49.3166
G2 X94.4617 Y48.9477 I0.0111 J-0.2671
G2 X94.2034 Y48.7826 I-0.2480 J0.1035
G1 X92.90713 Y48.7826
G1 X92.85861 Y48.78022
G1 X92.81056 Y48.77309
G1 X92.76344 Y48.76129
G1 X92.73187 Y48.74999
G1 E-60
G0 Z5 F20000
G0 X93.9463 Y51.27258
G0 Z0.5 F20000
G1 E60
G3 X93.7308 Y51.3226 I-0.2146 J-0.4351
G1 X92.70375 Y51.3226
G2 X92.4455 Y51.6915 I-0.0111 J0.2671
G2 X92.7038 Y51.8566 I0.2480 J-0.1035
G1 X94.20345 Y51.8566
G2 X94.4617 Y51.4877 I0.0111 J-0.2671
G2 X94.2034 Y51.3226 I-0.2480 J0.1035
G3 X93.9463 Y51.2726 I-0.0344 J-0.5093
G1 E-60
G0 Z5 F20000
G0 X93.0249 Y72.2834
G0 Z0.5 F20000
G1 E60
G1 X93.00382 Y72.29452
G1 X92.9599 Y72.31254
G2 X92.8156 Y72.3771 I0.0628 J0.3340
G2 X92.8590 Y72.8179 I0.1690 J0.2059
G2 X92.9968 Y72.8500 I0.1304 J-0.2485
G1 X94.49645 Y72.85
G2 X94.7547 Y72.4811 I0.0111 J-0.2671
G2 X94.4964 Y72.3160 I-0.2480 J0.1035
G1 X93.20013 Y72.316
G1 X93.15161 Y72.31362
G1 X93.10356 Y72.30649
G1 X93.05644 Y72.29469
G1 X93.0249 Y72.2834
G1 E-60
G0 Z5 F20000
G0 X92.8516 Y15.56317
G0 Z0.5 F20000
G1 E60
G1 X92.84289 Y15.56629
G1 X92.79577 Y15.57809
G1 X92.74772 Y15.58522
G1 X92.6992 Y15.5876
G1 X92.10175 Y15.5876
G2 X91.8435 Y15.9565 I-0.0111 J0.2671
G2 X92.1018 Y16.1216 I0.2480 J-0.1035
G1 X93.60145 Y16.1216
G2 X93.8597 Y15.7527 I0.0111 J-0.2671
G2 X93.6014 Y15.5876 I-0.2480 J0.1035
G1 X93.004 Y15.5876
G1 X92.95548 Y15.58522
G1 X92.90743 Y15.57809
G1 X92.86031 Y15.56629
G1 X92.8516 Y15.56317
G1 E-60
G0 Z5 F20000
G0 X93.0249 Y67.2034
G0 Z0.5 F20000
G1 E60
G1 X93.00382 Y67.21452
G1 X92.9599 Y67.23254
G2 X92.8156 Y67.2971 I0.0628 J0.3340
G2 X92.8590 Y67.7379 I0.1690 J0.2059
G2 X92.9968 Y67.7700 I0.1304 J-0.2485
G1 X94.49645 Y67.77
G2 X94.7547 Y67.4011 I0.0111 J-0.2671
G2 X94.4964 Y67.2360 I-0.2480 J0.1035
G1 X93.20013 Y67.236
G1 X93.15161 Y67.23362
G1 X93.10356 Y67.22649
G1 X93.05644 Y67.21469
G1 X93.0249 Y67.2034
G1 E-60
G0 Z5 F20000
G0 X94.42153 Y46.6786
G0 Z0.5 F20000
G1 E60
G2 X94.2929 Y46.2547 I-0.2059 J-0.1690
G1 X94.26757 Y46.24832
G1 X94.24171 Y46.24448
G1 X94.20345 Y46.2426
G1 X92.70375 Y46.2426
G2 X92.4455 Y46.6115 I-0.0111 J0.2671
G2 X92.7038 Y46.7766 I0.2480 J-0.1035
G1 X94.20345 Y46.7766
G2 X94.4215 Y46.6786 I0.0098 J-0.2699
G1 E-60
G0 Z5 F20000
G0 X92.12987 Y18.69421
G0 Z0.5 F20000
G1 E60
G1 X92.16144 Y18.68291
G1 X92.20856 Y18.67111
G1 X92.25661 Y18.66398
G1 X92.30513 Y18.6616
G1 X93.60145 Y18.6616
G2 X93.8597 Y18.2927 I0.0111 J-0.2671
G2 X93.6014 Y18.1276 I-0.2480 J0.1035
G1 X92.10175 Y18.1276
G2 X91.8435 Y18.4965 I-0.0111 J0.2671
G2 X92.0195 Y18.6513 I0.2450 J-0.1011
G1 X92.06703 Y18.66582
G1 X92.11291 Y18.68502
G1 X92.12987 Y18.69421
G1 E-60
G0 Z5 F20000
G0 X91.81494 Y20.9093
G0 Z0.5 F20000
G1 E60
G1 X91.82265 Y20.94837
G2 X92.1018 Y21.2016 I0.2690 J-0.0161
G1 X93.60145 Y21.2016
G2 X93.8597 Y20.8327 I0.0111 J-0.2671
G2 X93.6014 Y20.6676 I-0.2480 J0.1035
G1 X92.10175 Y20.6676
G2 X91.8264 Y20.8813 I-0.0089 J0.2728
G1 X91.81494 Y20.9093
G1 E-60
G0 Z5 F20000
G0 X92.8516 Y15.76103
G0 Z0.5 F20000
G1 E60
G1 X92.83308 Y15.76566
G1 X92.76646 Y15.77555
G1 X92.6992 Y15.77885
G1 X92.10645 Y15.77885
G2 X92.0204 Y15.8833 I-0.0142 J0.0760
G2 X92.1064 Y15.9303 I0.0735 J-0.0322
G1 X93.59675 Y15.93035
G2 X93.6828 Y15.8259 I0.0142 J-0.0760
G2 X93.5968 Y15.7788 I-0.0735 J0.0322
G1 X93.004 Y15.77885
G1 X92.93674 Y15.77555
G1 X92.87012 Y15.76566
G1 X92.8516 Y15.76103
G1 E-60
G0 Z5 F20000
G0 X92.14308 Y18.49059
G0 Z0.5 F20000
G1 E60
G1 X92.17125 Y18.48354
G1 X92.23786 Y18.47365
G1 X92.30513 Y18.47035
G1 X93.59675 Y18.47035
G2 X93.6828 Y18.3659 I0.0142 J-0.0760
G2 X93.5968 Y18.3188 I-0.0735 J0.0322
G1 X92.10645 Y18.31885
G2 X92.0204 Y18.4233 I-0.0142 J0.0760
G2 X92.0698 Y18.4670 I0.0698 J-0.0291
G1 X92.13188 Y18.4859
G1 X92.14308 Y18.49059
G1 E-60
G0 Z5 F20000
G0 X93.69074 Y23.4746
G0 Z0.5 F20000
G1 E60
G2 X93.5968 Y23.3989 I-0.0818 J0.0053
G1 X92.10645 Y23.39885
G2 X92.0204 Y23.5033 I-0.0142 J0.0760
G2 X92.1064 Y23.5504 I0.0735 J-0.0322
G1 X93.59675 Y23.55035
G2 X93.6907 Y23.4746 I0.0122 J-0.0810
G1 E-60
G0 Z5 F20000
G0 X93.03798 Y69.94698
G0 Z0.5 F20000
G1 E60
G1 X93.02393 Y69.95275
G2 X92.9371 Y69.9851 I0.0137 J0.1696
G2 X92.9493 Y70.1091 I0.0475 J0.0579
G2 X93.0014 Y70.1187 I0.0434 J-0.0888
G1 X94.49175 Y70.11875
G2 X94.5778 Y70.0143 I0.0142 J-0.0760
G2 X94.4918 Y69.9672 I-0.0735 J0.0322
G1 X93.20013 Y69.96725
G1 X93.13286 Y69.96395
G1 X93.06625 Y69.95406
G1 X93.03798 Y69.94698
G1 E-60
G0 Z5 F20000
G0 X92.74508 Y48.95361
G0 Z0.5 F20000
G1 E60
G1 X92.73388 Y48.9583
G2 X92.6441 Y48.9917 I0.0143 J0.1760
G2 X92.6563 Y49.1157 I0.0475 J0.0579
G2 X92.7084 Y49.1254 I0.0434 J-0.0888
G1 X94.19875 Y49.12535
G2 X94.2848 Y49.0209 I0.0142 J-0.0760
G2 X94.1988 Y48.9739 I-0.0735 J0.0322
G1 X92.90713 Y48.97385
G1 X92.83986 Y48.97055
G1 X92.77325 Y48.96066
G1 X92.74508 Y48.95361
G1 E-60
G0 Z5 F20000
G0 X93.9463 Y51.47846
G0 Z0.5 F20000
G1 E60
G1 X93.92998 Y51.4843
G1 X93.86465 Y51.50066
G1 X93.79804 Y51.51055
G1 X93.73077 Y51.51385
G1 X92.70845 Y51.51385
G2 X92.6224 Y51.6183 I-0.0142 J0.0760
G2 X92.7084 Y51.6654 I0.0735 J-0.0322
G1 X94.19875 Y51.66535
G2 X94.2848 Y51.5609 I0.0142 J-0.0760
G2 X94.1988 Y51.5139 I-0.0735 J0.0322
G3 X93.9463 Y51.4785 I-0.0335 J-0.6795
G1 E-60
G0 Z5 F20000
G0 X94.29274 Y54.1296
G0 Z0.5 F20000
G1 E60
G2 X94.1988 Y54.0539 I-0.0818 J0.0053
G1 X92.70813 Y54.05385
G1 X92.67656 Y54.0523
G2 X92.6181 Y54.1442 I0.0216 J0.0783
G2 X92.7084 Y54.2054 I0.0773 J-0.0169
G1 X94.19875 Y54.20535
G2 X94.2927 Y54.1296 I0.0122 J-0.0810
G1 E-60
G0 Z5 F20000
G0 X94.2393 Y75.01186
G0 Z0.5 F20000
G1 E60
G1 X94.22298 Y75.0177
G1 X94.15765 Y75.03406
G1 X94.09104 Y75.04395
G1 X94.02377 Y75.04725
G1 X93.00145 Y75.04725
G2 X92.9154 Y75.1517 I-0.0142 J0.0760
G2 X93.0014 Y75.1987 I0.0735 J-0.0322
G1 X94.49175 Y75.19875
G2 X94.5778 Y75.0943 I0.0142 J-0.0760
G2 X94.4918 Y75.0472 I-0.0735 J0.0322
G3 X94.2393 Y75.0119 I-0.0335 J-0.6795
G1 E-60
G0 Z5 F20000
G0 X93.03798 Y72.48698
G0 Z0.5 F20000
G1 E60
G1 X93.02393 Y72.49275
G2 X92.9371 Y72.5251 I0.0137 J0.1696
G2 X92.9493 Y72.6491 I0.0475 J0.0579
G2 X93.0014 Y72.6587 I0.0434 J-0.0888
G1 X94.49175 Y72.65875
G2 X94.5778 Y72.5543 I0.0142 J-0.0760
G2 X94.4918 Y72.5072 I-0.0735 J0.0322
G1 X93.20013 Y72.50725
G1 X93.13286 Y72.50395
G1 X93.06625 Y72.49406
G1 X93.03798 Y72.48698
G1 E-60
G0 Z5 F20000
G0 X93.03798 Y67.40698
G0 Z0.5 F20000
G1 E60
G1 X93.02393 Y67.41275
G2 X92.9371 Y67.4451 I0.0137 J0.1696
G2 X92.9493 Y67.5691 I0.0475 J0.0579
G2 X93.0014 Y67.5787 I0.0434 J-0.0888
G1 X94.49175 Y67.57875
G2 X94.5778 Y67.4743 I0.0142 J-0.0760
G2 X94.4918 Y67.4273 I-0.0735 J0.0322
G1 X93.20013 Y67.42725
G1 X93.13286 Y67.42395
G1 X93.06625 Y67.41406
G1 X93.03798 Y67.40698
G1 E-60
G0 Z5 F20000
G0 X94.27352 Y46.55713
G0 Z0.5 F20000
G1 E60
G2 X94.2373 Y46.4379 I-0.0579 J-0.0475
G1 X94.23022 Y46.43612
G1 X94.22294 Y46.43504
G1 X94.19875 Y46.43385
G1 X92.70845 Y46.43385
G2 X92.6224 Y46.5383 I-0.0142 J0.0760
G2 X92.7084 Y46.5853 I0.0735 J-0.0322
G1 X94.19875 Y46.58535
G2 X94.2735 Y46.5571 I0.0118 J-0.0819
G1 E-60
G0 Z5 F20000
G0 X92.01283 Y20.92704
G0 Z0.5 F20000
G1 E60
G2 X92.1064 Y21.0104 I0.0812 J0.0030
G1 X93.59675 Y21.01035
G2 X93.6828 Y20.9059 I0.0142 J-0.0760
G2 X93.5968 Y20.8589 I-0.0735 J0.0322
G1 X92.10645 Y20.85885
G2 X92.0128 Y20.9270 I-0.0120 J0.0819
G1 E-60
G0 Z5 F20000
G0 X70.2208 Y20.9067
G0 Z0.5 F20000
G1 E60
G1 X71.3384 Y20.9067
G1 X71.3384 Y19.3065
G1 X70.2208 Y19.3065
G1 X70.2208 Y20.9067
G0 Z5 F20000
G1 E-60
G0 Z5 F20000
G0 X70.5583 Y20.5692
G0 Z0.5 F20000
G1 E60
G1 X71.0009 Y20.5692
G1 X71.0009 Y19.644
G1 X70.5583 Y19.644
G1 X70.5583 Y20.5692
G0 Z5 F20000
G1 E-60
G0 Z5 F20000
G0 X73.0148 Y20.9067
G0 Z0.5 F20000
G1 E60
G1 X74.1324 Y20.9067
G1 X74.1324 Y19.3065
G1 X73.0148 Y19.3065
G1 X73.0148 Y20.9067
G0 Z5 F20000
G1 E-60
G0 Z5 F20000
G0 X73.3523 Y20.5692
G0 Z0.5 F20000
G1 E60
G1 X73.7949 Y20.5692
G1 X73.7949 Y19.644
G1 X73.3523 Y19.644
G1 X73.3523 Y20.5692
G0 Z5 F20000
G1 E-60
G0 Z5 F20000
G0 X70.2208 Y25.9867
G0 Z0.5 F20000
G1 E60
G1 X71.3384 Y25.9867
G1 X71.3384 Y24.3865
G1 X70.2208 Y24.3865
G1 X70.2208 Y25.9867
G0 Z5 F20000
G1 E-60
G0 Z5 F20000
G0 X70.5583 Y25.6492
G0 Z0.5 F20000
G1 E60
G1 X71.0009 Y25.6492
G1 X71.0009 Y24.724
G1 X70.5583 Y24.724
G1 X70.5583 Y25.6492
G0 Z5 F20000
G1 E-60
G0 Z5 F20000
G0 X73.0148 Y25.9867
G0 Z0.5 F20000
G1 E60
G1 X74.1324 Y25.9867
G1 X74.1324 Y24.3865
G1 X73.0148 Y24.3865
G1 X73.0148 Y25.9867
G0 Z5 F20000
G1 E-60
G0 Z5 F20000
G0 X73.3523 Y25.6492
G0 Z0.5 F20000
G1 E60
G1 X73.7949 Y25.6492
G1 X73.7949 Y24.724
G1 X73.3523 Y24.724
G1 X73.3523 Y25.6492
G0 Z5 F20000
G1 E-60
G0 Z5 F20000
G0 X60.0608 Y32.3875
G0 Z0.5 F20000
G1 E60
G1 X61.0768 Y32.3875
G1 X61.0768 Y30.6857
G1 X60.0608 Y30.6857
G1 X60.0608 Y32.3875
G0 Z5 F20000
G1 E-60
G0 Z5 F20000
G0 X60.3983 Y32.05
G0 Z0.5 F20000
G1 E60
G1 X60.7393 Y32.05
G1 X60.7393 Y31.0232
G1 X60.3983 Y31.0232
G1 X60.3983 Y32.05
G0 Z5 F20000
G1 E-60
G0 Z5 F20000
G0 X62.9564 Y32.3875
G0 Z0.5 F20000
G1 E60
G1 X63.9724 Y32.3875
G1 X63.9724 Y30.6857
G1 X62.9564 Y30.6857
G1 X62.9564 Y32.3875
G0 Z5 F20000
G1 E-60
G0 Z5 F20000
G0 X63.2939 Y32.05
G0 Z0.5 F20000
G1 E60
G1 X63.6349 Y32.05
G1 X63.6349 Y31.0232
G1 X63.2939 Y31.0232
G1 X63.2939 Y32.05
G0 Z5 F20000
G1 E-60
G0 Z5 F20000
G0 X60.0608 Y26.0375
G0 Z0.5 F20000
G1 E60
G1 X61.0768 Y26.0375
G1 X61.0768 Y24.3357
G1 X60.0608 Y24.3357
G1 X60.0608 Y26.0375
G0 Z5 F20000
G1 E-60
G0 Z5 F20000
G0 X60.3983 Y25.7
G0 Z0.5 F20000
G1 E60
G1 X60.7393 Y25.7
G1 X60.7393 Y24.6732
G1 X60.3983 Y24.6732
G1 X60.3983 Y25.7
G0 Z5 F20000
G1 E-60
G0 Z5 F20000
G0 X62.9564 Y26.0375
G0 Z0.5 F20000
G1 E60
G1 X63.9724 Y26.0375
G1 X63.9724 Y24.3357
G1 X62.9564 Y24.3357
G1 X62.9564 Y26.0375
G0 Z5 F20000
G1 E-60
G0 Z5 F20000
G0 X63.2939 Y25.7
G0 Z0.5 F20000
G1 E60
G1 X63.6349 Y25.7
G1 X63.6349 Y24.6732
G1 X63.2939 Y24.6732
G1 X63.2939 Y25.7
G0 Z5 F20000
G1 E-60
G0 Z5 F20000
G0 X60.0608 Y20.9575
G0 Z0.5 F20000
G1 E60
G1 X61.0768 Y20.9575
G1 X61.0768 Y19.2557
G1 X60.0608 Y19.2557
G1 X60.0608 Y20.9575
G0 Z5 F20000
G1 E-60
G0 Z5 F20000
G0 X60.3983 Y20.62
G0 Z0.5 F20000
G1 E60
G1 X60.7393 Y20.62
G1 X60.7393 Y19.5932
G1 X60.3983 Y19.5932
G1 X60.3983 Y20.62
G0 Z5 F20000
G1 E-60
G0 Z5 F20000
G0 X62.9564 Y20.9575
G0 Z0.5 F20000
G1 E60
G1 X63.9724 Y20.9575
G1 X63.9724 Y19.2557
G1 X62.9564 Y19.2557
G1 X62.9564 Y20.9575
G0 Z5 F20000
G1 E-60
G0 Z5 F20000
G0 X63.2939 Y20.62
G0 Z0.5 F20000
G1 E60
G1 X63.6349 Y20.62
G1 X63.6349 Y19.5932
G1 X63.2939 Y19.5932
G1 X63.2939 Y20.62
G0 Z5 F20000
G1 E-60
G0 Z5 F20000
G0 X60.0608 Y15.8775
G0 Z0.5 F20000
G1 E60
G1 X61.0768 Y15.8775
G1 X61.0768 Y14.1757
G1 X60.0608 Y14.1757
G1 X60.0608 Y15.8775
G0 Z5 F20000
G1 E-60
G0 Z5 F20000
G0 X60.3983 Y15.54
G0 Z0.5 F20000
G1 E60
G1 X60.7393 Y15.54
G1 X60.7393 Y14.5132
G1 X60.3983 Y14.5132
G1 X60.3983 Y15.54
G0 Z5 F20000
G1 E-60
G0 Z5 F20000
G0 X62.9564 Y15.8775
G0 Z0.5 F20000
G1 E60
G1 X63.9724 Y15.8775
G1 X63.9724 Y14.1757
G1 X62.9564 Y14.1757
G1 X62.9564 Y15.8775
G0 Z5 F20000
G1 E-60
G0 Z5 F20000
G0 X63.2939 Y15.54
G0 Z0.5 F20000
G1 E60
G1 X63.6349 Y15.54
G1 X63.6349 Y14.5132
G1 X63.2939 Y14.5132
G1 X63.2939 Y15.54
G0 Z5 F20000
G1 E-60
G0 Z5 F20000
G0 X15.1936 Y4.9656
G0 Z0.5 F20000
G1 E60
G1 E-60
G0 Z5 F20000
G0 X15.1936 Y4.9656
G0 Z0.5 F20000
G1 E60
G2 X15.1936 Y4.9656 I-0.1800 J0.0000
G1 E-60
G0 Z5 F20000
G0 X15.3736 Y4.9656
G0 Z0.5 F20000
G1 E60
G2 X15.3736 Y4.9656 I-0.3600 J0.0000
G1 E-60
G0 Z5 F20000
G0 X15.5536 Y4.9656
G0 Z0.5 F20000
G1 E60
G2 X15.5536 Y4.9656 I-0.5400 J0.0000
G1 E-60
G0 Z5 F20000
G0 X15.7336 Y4.9656
G0 Z0.5 F20000
G1 E60
G2 X15.7336 Y4.9656 I-0.7200 J0.0000
G0 Z5 F20000
G1 E-60
G0 Z5 F20000
G0 X12.6536 Y4.9656
G0 Z0.5 F20000
G1 E60
G1 E-60
G0 Z5 F20000
G0 X12.6536 Y4.9656
G0 Z0.5 F20000
G1 E60
G2 X12.6536 Y4.9656 I-0.1800 J0.0000
G1 E-60
G0 Z5 F20000
G0 X12.8336 Y4.9656
G0 Z0.5 F20000
G1 E60
G2 X12.8336 Y4.9656 I-0.3600 J0.0000
G1 E-60
G0 Z5 F20000
G0 X13.0136 Y4.9656
G0 Z0.5 F20000
G1 E60
G2 X13.0136 Y4.9656 I-0.5400 J0.0000
G1 E-60
G0 Z5 F20000
G0 X13.1936 Y4.9656
G0 Z0.5 F20000
G1 E60
G2 X13.1936 Y4.9656 I-0.7200 J0.0000
G0 Z5 F20000
G1 E-60
G0 Z5 F20000
G0 X10.1136 Y4.9656
G0 Z0.5 F20000
G1 E60
G1 E-60
G0 Z5 F20000
G0 X10.1136 Y4.9656
G0 Z0.5 F20000
G1 E60
G2 X10.1136 Y4.9656 I-0.1800 J0.0000
G1 E-60
G0 Z5 F20000
G0 X10.2936 Y4.9656
G0 Z0.5 F20000
G1 E60
G2 X10.2936 Y4.9656 I-0.3600 J0.0000
G1 E-60
G0 Z5 F20000
G0 X10.4736 Y4.9656
G0 Z0.5 F20000
G1 E60
G2 X10.4736 Y4.9656 I-0.5400 J0.0000
G1 E-60
G0 Z5 F20000
G0 X10.6536 Y4.9656
G0 Z0.5 F20000
G1 E60
G2 X10.6536 Y4.9656 I-0.7200 J0.0000
G0 Z5 F20000
G1 E-60
G0 Z5 F20000
G0 X7.5736 Y4.9656
G0 Z0.5 F20000
G1 E60
G1 E-60
G0 Z5 F20000
G0 X7.5736 Y4.9656
G0 Z0.5 F20000
G1 E60
G2 X7.5736 Y4.9656 I-0.1800 J0.0000
G1 E-60
G0 Z5 F20000
G0 X7.7536 Y4.9656
G0 Z0.5 F20000
G1 E60
G2 X7.7536 Y4.9656 I-0.3600 J0.0000
G1 E-60
G0 Z5 F20000
G0 X7.9336 Y4.9656
G0 Z0.5 F20000
G1 E60
G2 X7.9336 Y4.9656 I-0.5400 J0.0000
G1 E-60
G0 Z5 F20000
G0 X8.1136 Y4.9656
G0 Z0.5 F20000
G1 E60
G2 X8.1136 Y4.9656 I-0.7200 J0.0000
G0 Z5 F20000
G1 E-60
G0 Z5 F20000
G0 X70.2462 Y15.9029
G0 Z0.5 F20000
G1 E60
G1 X71.2622 Y15.9029
G1 X71.2622 Y14.1503
G1 X70.2462 Y14.1503
G1 X70.2462 Y15.9029
G0 Z5 F20000
G1 E-60
G0 Z5 F20000
G0 X70.5837 Y15.5654
G0 Z0.5 F20000
G1 E60
G1 X70.9247 Y15.5654
G1 X70.9247 Y14.4878
G1 X70.5837 Y14.4878
G1 X70.5837 Y15.5654
G0 Z5 F20000
G1 E-60
G0 Z5 F20000
G0 X73.091 Y15.9029
G0 Z0.5 F20000
G1 E60
G1 X74.107 Y15.9029
G1 X74.107 Y14.1503
G1 X73.091 Y14.1503
G1 X73.091 Y15.9029
G0 Z5 F20000
G1 E-60
G0 Z5 F20000
G0 X73.4285 Y15.5654
G0 Z0.5 F20000
G1 E60
G1 X73.7695 Y15.5654
G1 X73.7695 Y14.4878
G1 X73.4285 Y14.4878
G1 X73.4285 Y15.5654
G0 Z5 F20000
G1 E-60
G0 Z5 F20000
G0 X33.563 Y4.8056
G0 Z0.5 F20000
G1 E60
G1 E-60
G0 Z5 F20000
G0 X33.563 Y4.8056
G0 Z0.5 F20000
G1 E60
G2 X33.5630 Y4.8056 I-0.1800 J0.0000
G1 E-60
G0 Z5 F20000
G0 X33.743 Y4.8056
G0 Z0.5 F20000
G1 E60
G2 X33.7430 Y4.8056 I-0.3600 J0.0000
G1 E-60
G0 Z5 F20000
G0 X33.923 Y4.8056
G0 Z0.5 F20000
G1 E60
G2 X33.9230 Y4.8056 I-0.5400 J0.0000
G1 E-60
G0 Z5 F20000
G0 X34.103 Y4.8056
G0 Z0.5 F20000
G1 E60
G2 X34.1030 Y4.8056 I-0.7200 J0.0000
G0 Z5 F20000
G1 E-60
G0 Z5 F20000
G0 X31.023 Y4.8056
G0 Z0.5 F20000
G1 E60
G1 E-60
G0 Z5 F20000
G0 X31.023 Y4.8056
G0 Z0.5 F20000
G1 E60
G2 X31.0230 Y4.8056 I-0.1800 J0.0000
G1 E-60
G0 Z5 F20000
G0 X31.203 Y4.8056
G0 Z0.5 F20000
G1 E60
G2 X31.2030 Y4.8056 I-0.3600 J0.0000
G1 E-60
G0 Z5 F20000
G0 X31.383 Y4.8056
G0 Z0.5 F20000
G1 E60
G2 X31.3830 Y4.8056 I-0.5400 J0.0000
G1 E-60
G0 Z5 F20000
G0 X31.563 Y4.8056
G0 Z0.5 F20000
G1 E60
G2 X31.5630 Y4.8056 I-0.7200 J0.0000
G0 Z5 F20000
G1 E-60
G0 Z5 F20000
G0 X28.483 Y4.8056
G0 Z0.5 F20000
G1 E60
G1 E-60
G0 Z5 F20000
G0 X28.483 Y4.8056
G0 Z0.5 F20000
G1 E60
G2 X28.4830 Y4.8056 I-0.1800 J0.0000
G1 E-60
G0 Z5 F20000
G0 X28.663 Y4.8056
G0 Z0.5 F20000
G1 E60
G2 X28.6630 Y4.8056 I-0.3600 J0.0000
G1 E-60
G0 Z5 F20000
G0 X28.843 Y4.8056
G0 Z0.5 F20000
G1 E60
G2 X28.8430 Y4.8056 I-0.5400 J0.0000
G1 E-60
G0 Z5 F20000
G0 X29.023 Y4.8056
G0 Z0.5 F20000
G1 E60
G2 X29.0230 Y4.8056 I-0.7200 J0.0000
G0 Z5 F20000
G1 E-60
G0 Z5 F20000
G0 X25.943 Y4.8056
G0 Z0.5 F20000
G1 E60
G1 E-60
G0 Z5 F20000
G0 X25.943 Y4.8056
G0 Z0.5 F20000
G1 E60
G2 X25.9430 Y4.8056 I-0.1800 J0.0000
G1 E-60
G0 Z5 F20000
G0 X26.123 Y4.8056
G0 Z0.5 F20000
G1 E60
G2 X26.1230 Y4.8056 I-0.3600 J0.0000
G1 E-60
G0 Z5 F20000
G0 X26.303 Y4.8056
G0 Z0.5 F20000
G1 E60
G2 X26.3030 Y4.8056 I-0.5400 J0.0000
G1 E-60
G0 Z5 F20000
G0 X26.483 Y4.8056
G0 Z0.5 F20000
G1 E60
G2 X26.4830 Y4.8056 I-0.7200 J0.0000
G0 Z5 F20000
G1 E-60
G0 Z5 F20000
G0 X30.4466 Y28.9966
G0 Z0.5 F20000
G1 E60
G1 E-60
G0 Z5 F20000
G0 X30.4466 Y28.9966
G0 Z0.5 F20000
G1 E60
G2 X30.4466 Y28.9966 I-0.1800 J0.0000
G1 E-60
G0 Z5 F20000
G0 X30.6266 Y28.9966
G0 Z0.5 F20000
G1 E60
G2 X30.6266 Y28.9966 I-0.3600 J0.0000
G1 E-60
G0 Z5 F20000
G0 X30.8066 Y28.9966
G0 Z0.5 F20000
G1 E60
G2 X30.8066 Y28.9966 I-0.5400 J0.0000
G1 E-60
G0 Z5 F20000
G0 X30.9866 Y28.9966
G0 Z0.5 F20000
G1 E60
G2 X30.9866 Y28.9966 I-0.7200 J0.0000
G0 Z5 F20000
G1 E-60
G0 Z5 F20000
G0 X15.4606 Y28.9966
G0 Z0.5 F20000
G1 E60
G1 E-60
G0 Z5 F20000
G0 X15.4606 Y28.9966
G0 Z0.5 F20000
G1 E60
G2 X15.4606 Y28.9966 I-0.1800 J0.0000
G1 E-60
G0 Z5 F20000
G0 X15.6406 Y28.9966
G0 Z0.5 F20000
G1 E60
G2 X15.6406 Y28.9966 I-0.3600 J0.0000
G1 E-60
G0 Z5 F20000
G0 X15.8206 Y28.9966
G0 Z0.5 F20000
G1 E60
G2 X15.8206 Y28.9966 I-0.5400 J0.0000
G1 E-60
G0 Z5 F20000
G0 X16.0006 Y28.9966
G0 Z0.5 F20000
G1 E60
G2 X16.0006 Y28.9966 I-0.7200 J0.0000
G0 Z5 F20000
G1 E-60
G0 Z5 F20000
G0 X30.4466 Y56.1746
G0 Z0.5 F20000
G1 E60
G1 E-60
G0 Z5 F20000
G0 X30.4466 Y56.1746
G0 Z0.5 F20000
G1 E60
G2 X30.4466 Y56.1746 I-0.1800 J0.0000
G1 E-60
G0 Z5 F20000
G0 X30.6266 Y56.1746
G0 Z0.5 F20000
G1 E60
G2 X30.6266 Y56.1746 I-0.3600 J0.0000
G1 E-60
G0 Z5 F20000
G0 X30.8066 Y56.1746
G0 Z0.5 F20000
G1 E60
G2 X30.8066 Y56.1746 I-0.5400 J0.0000
G1 E-60
G0 Z5 F20000
G0 X30.9866 Y56.1746
G0 Z0.5 F20000
G1 E60
G2 X30.9866 Y56.1746 I-0.7200 J0.0000
G1 E-60
G0 Z5 F20000
G0 X31.1666 Y56.1746
G0 Z0.5 F20000
G1 E60
G2 X31.1666 Y56.1746 I-0.9000 J0.0000
G1 E-60
G0 Z5 F20000
G0 X31.3466 Y56.1746
G0 Z0.5 F20000
G1 E60
G2 X31.3466 Y56.1746 I-1.0800 J0.0000
G1 E-60
G0 Z5 F20000
G0 X31.5266 Y56.1746
G0 Z0.5 F20000
G1 E60
G2 X31.5266 Y56.1746 I-1.2600 J0.0000
G1 E-60
G0 Z5 F20000
G0 X31.7066 Y56.1746
G0 Z0.5 F20000
G1 E60
G2 X31.7066 Y56.1746 I-1.4400 J0.0000
G1 E-60
G0 Z5 F20000
G0 X31.8866 Y56.1746
G0 Z0.5 F20000
G1 E60
G2 X31.8866 Y56.1746 I-1.6200 J0.0000
G1 E-60
G0 Z5 F20000
G0 X32.0666 Y56.1746
G0 Z0.5 F20000
G1 E60
G2 X32.0666 Y56.1746 I-1.8000 J0.0000
G1 E-60
G0 Z5 F20000
G0 X32.2466 Y56.1746
G0 Z0.5 F20000
G1 E60
G2 X32.2466 Y56.1746 I-1.9800 J0.0000
G0 Z5 F20000
G1 E-60
G0 Z5 F20000
G0 X15.4606 Y56.1746
G0 Z0.5 F20000
G1 E60
G1 E-60
G0 Z5 F20000
G0 X15.4606 Y56.1746
G0 Z0.5 F20000
G1 E60
G2 X15.4606 Y56.1746 I-0.1800 J0.0000
G1 E-60
G0 Z5 F20000
G0 X15.6406 Y56.1746
G0 Z0.5 F20000
G1 E60
G2 X15.6406 Y56.1746 I-0.3600 J0.0000
G1 E-60
G0 Z5 F20000
G0 X15.8206 Y56.1746
G0 Z0.5 F20000
G1 E60
G2 X15.8206 Y56.1746 I-0.5400 J0.0000
G1 E-60
G0 Z5 F20000
G0 X16.0006 Y56.1746
G0 Z0.5 F20000
G1 E60
G2 X16.0006 Y56.1746 I-0.7200 J0.0000
G1 E-60
G0 Z5 F20000
G0 X16.1806 Y56.1746
G0 Z0.5 F20000
G1 E60
G2 X16.1806 Y56.1746 I-0.9000 J0.0000
G1 E-60
G0 Z5 F20000
G0 X16.3606 Y56.1746
G0 Z0.5 F20000
G1 E60
G2 X16.3606 Y56.1746 I-1.0800 J0.0000
G1 E-60
G0 Z5 F20000
G0 X16.5406 Y56.1746
G0 Z0.5 F20000
G1 E60
G2 X16.5406 Y56.1746 I-1.2600 J0.0000
G1 E-60
G0 Z5 F20000
G0 X16.7206 Y56.1746
G0 Z0.5 F20000
G1 E60
G2 X16.7206 Y56.1746 I-1.4400 J0.0000
G1 E-60
G0 Z5 F20000
G0 X16.9006 Y56.1746
G0 Z0.5 F20000
G1 E60
G2 X16.9006 Y56.1746 I-1.6200 J0.0000
G1 E-60
G0 Z5 F20000
G0 X17.0806 Y56.1746
G0 Z0.5 F20000
G1 E60
G2 X17.0806 Y56.1746 I-1.8000 J0.0000
G1 E-60
G0 Z5 F20000
G0 X17.2606 Y56.1746
G0 Z0.5 F20000
G1 E60
G2 X17.2606 Y56.1746 I-1.9800 J0.0000
G0 Z5 F20000
G1 E-60
G0 Z5 F20000
G0 X70.7452 Y32.3061
G0 Z0.5 F20000
G1 E60
G1 X71.558 Y32.3061
G1 X71.558 Y31.4171
G1 X70.7452 Y31.4171
G1 X70.7452 Y32.3061
G0 Z5 F20000
G1 E-60
G0 Z5 F20000
G0 X72.7952 Y32.3061
G0 Z0.5 F20000
G1 E60
G1 X73.608 Y32.3061
G1 X73.608 Y31.4171
G1 X72.7952 Y31.4171
G1 X72.7952 Y32.3061
G0 Z5 F20000
G1 E-60
G0 Z5 F20000
G0 X71.7702 Y34.1961
G0 Z0.5 F20000
G1 E60
G1 X72.583 Y34.1961
G1 X72.583 Y33.3071
G1 X71.7702 Y33.3071
G1 X71.7702 Y34.1961
G0 Z5 F20000
G1 E-60
G0 Z5 F20000
G0 X44.4525 Y33.3019
G0 Z0.5 F20000
G1 E60
G1 X44.8589 Y33.3019
G1 X44.8589 Y32.3113
G1 X44.4525 Y32.3113
G1 X44.4525 Y33.3019
G0 Z5 F20000
G1 E-60
G0 Z5 F20000
G0 X46.1543 Y33.3019
G0 Z0.5 F20000
G1 E60
G1 X46.5607 Y33.3019
G1 X46.5607 Y32.3113
G1 X46.1543 Y32.3113
G1 X46.1543 Y33.3019
G0 Z5 F20000
G1 E-60
G0 Z5 F20000
G0 X46.1543 Y42.1919
G0 Z0.5 F20000
G1 E60
G1 X46.5607 Y42.1919
G1 X46.5607 Y41.2013
G1 X46.1543 Y41.2013
G1 X46.1543 Y42.1919
G0 Z5 F20000
G1 E-60
G0 Z5 F20000
G0 X44.4525 Y42.1919
G0 Z0.5 F20000
G1 E60
G1 X44.8589 Y42.1919
G1 X44.8589 Y41.2013
G1 X44.4525 Y41.2013
G1 X44.4525 Y42.1919
G0 Z5 F20000
G1 E-60
G0 Z5 F20000
G0 X44.4525 Y49.8119
G0 Z0.5 F20000
G1 E60
G1 X44.8589 Y49.8119
G1 X44.8589 Y48.8213
G1 X44.4525 Y48.8213
G1 X44.4525 Y49.8119
G0 Z5 F20000
G1 E-60
G0 Z5 F20000
G0 X46.1543 Y49.8119
G0 Z0.5 F20000
G1 E60
G1 X46.5607 Y49.8119
G1 X46.5607 Y48.8213
G1 X46.1543 Y48.8213
G1 X46.1543 Y49.8119
G0 Z5 F20000
G1 E-60
G0 Z5 F20000
G0 X46.2125 Y6.7157
G0 Z0.5 F20000
G1 E60
G1 X47.5587 Y6.7157
G1 X47.5587 Y5.3695
G1 X46.2125 Y5.3695
G1 X46.2125 Y6.7157
G0 Z5 F20000
G1 E-60
G0 Z5 F20000
G0 X46.55 Y6.3782
G0 Z0.5 F20000
G1 E60
G1 X47.2212 Y6.3782
G1 X47.2212 Y5.707
G1 X46.55 Y5.707
G1 X46.55 Y6.3782
G0 Z5 F20000
G1 E-60
G0 Z5 F20000
G0 X44.5256 Y3.5026
G0 Z0.5 F20000
G1 E60
G1 E-60
G0 Z5 F20000
G0 X44.5256 Y3.5026
G0 Z0.5 F20000
G1 E60
G2 X44.5256 Y3.5026 I-0.1800 J0.0000
G1 E-60
G0 Z5 F20000
G0 X44.7056 Y3.5026
G0 Z0.5 F20000
G1 E60
G2 X44.7056 Y3.5026 I-0.3600 J0.0000
G1 E-60
G0 Z5 F20000
G0 X44.8856 Y3.5026
G0 Z0.5 F20000
G1 E60
G2 X44.8856 Y3.5026 I-0.5400 J0.0000
G0 Z5 F20000
G1 E-60
G0 Z5 F20000
G0 X41.9856 Y6.0426
G0 Z0.5
G1 E-60
G0 Z5 F20000
G0 X41.9856 Y6.0426
G0 Z0.5 F20000
G1 E60
G2 X41.9856 Y6.0426 I-0.1800 J0.0000
G1 E-60
G0 Z5 F20000
G0 X42.1656 Y6.0426
G0 Z0.5 F20000
G1 E60
G2 X42.1656 Y6.0426 I-0.3600 J0.0000
G1 E-60
G0 Z5 F20000
G0 X42.3456 Y6.0426
G0 Z0.5 F20000
G1 E60
G2 X42.3456 Y6.0426 I-0.5400 J0.0000
G0 Z5 F20000
G1 E-60
G0 Z5 F20000
G0 X2.5972 Y39.508
G0 Z0.5 F20000
G1 E60
G1 X3.9688 Y39.508
G1 X3.9688 Y38.1364
G1 X2.5972 Y38.1364
G1 X2.5972 Y39.508
G0 Z5 F20000
G1 E-60
G0 Z5 F20000
G0 X2.9347 Y39.1705
G0 Z0.5 F20000
G1 E60
G1 X3.6313 Y39.1705
G1 X3.6313 Y38.4739
G1 X2.9347 Y38.4739
G1 X2.9347 Y39.1705
G0 Z5 F20000
G1 E-60
G0 Z5 F20000
G0 X3.463 Y36.2822
G0 Z0.5 F20000
G1 E60
G1 E-60
G0 Z5 F20000
G0 X3.463 Y36.2822
G0 Z0.5 F20000
G1 E60
G2 X3.4630 Y36.2822 I-0.1800 J0.0000
G1 E-60
G0 Z5 F20000
G0 X3.643 Y36.2822
G0 Z0.5 F20000
G1 E60
G2 X3.6430 Y36.2822 I-0.3600 J0.0000
G1 E-60
G0 Z5 F20000
G0 X3.823 Y36.2822
G0 Z0.5 F20000
G1 E60
G2 X3.8230 Y36.2822 I-0.5400 J0.0000
G0 Z5 F20000
G1 E-60
G0 Z5 F20000
G0 X3.463 Y33.7422
G0 Z0.5 F20000
G1 E60
G1 E-60
G0 Z5 F20000
G0 X3.463 Y33.7422
G0 Z0.5 F20000
G1 E60
G2 X3.4630 Y33.7422 I-0.1800 J0.0000
G1 E-60
G0 Z5 F20000
G0 X3.643 Y33.7422
G0 Z0.5 F20000
G1 E60
G2 X3.6430 Y33.7422 I-0.3600 J0.0000
G1 E-60
G0 Z5 F20000
G0 X3.823 Y33.7422
G0 Z0.5 F20000
G1 E60
G2 X3.8230 Y33.7422 I-0.5400 J0.0000
G0 Z5 F20000
G1 E-60
G0 Z5 F20000
G0 X64.709 Y47.3394
G0 Z0.5 F20000
G1 E60
G1 X66.3854 Y47.3394
G1 X66.3854 Y46.9838
G1 X64.709 Y46.9838
G1 X64.709 Y47.3394
G0 Z5 F20000
G1 E-60
G0 Z5 F20000
G0 X64.709 Y46.6894
G0 Z0.5 F20000
G1 E60
G1 X66.3854 Y46.6894
G1 X66.3854 Y46.3338
G1 X64.709 Y46.3338
G1 X64.709 Y46.6894
G0 Z5 F20000
G1 E-60
G0 Z5 F20000
G0 X64.709 Y46.0394
G0 Z0.5 F20000
G1 E60
G1 X66.3854 Y46.0394
G1 X66.3854 Y45.6838
G1 X64.709 Y45.6838
G1 X64.709 Y46.0394
G0 Z5 F20000
G1 E-60
G0 Z5 F20000
G0 X64.709 Y45.3894
G0 Z0.5 F20000
G1 E60
G1 X66.3854 Y45.3894
G1 X66.3854 Y45.0338
G1 X64.709 Y45.0338
G1 X64.709 Y45.3894
G0 Z5 F20000
G1 E-60
G0 Z5 F20000
G0 X64.709 Y44.7394
G0 Z0.5 F20000
G1 E60
G1 X66.3854 Y44.7394
G1 X66.3854 Y44.3838
G1 X64.709 Y44.3838
G1 X64.709 Y44.7394
G0 Z5 F20000
G1 E-60
G0 Z5 F20000
G0 X64.709 Y44.0894
G0 Z0.5 F20000
G1 E60
G1 X66.3854 Y44.0894
G1 X66.3854 Y43.7338
G1 X64.709 Y43.7338
G1 X64.709 Y44.0894
G0 Z5 F20000
G1 E-60
G0 Z5 F20000
G0 X64.709 Y43.4394
G0 Z0.5 F20000
G1 E60
G1 X66.3854 Y43.4394
G1 X66.3854 Y43.0838
G1 X64.709 Y43.0838
G1 X64.709 Y43.4394
G0 Z5 F20000
G1 E-60
G0 Z5 F20000
G0 X64.709 Y42.7894
G0 Z0.5 F20000
G1 E60
G1 X66.3854 Y42.7894
G1 X66.3854 Y42.4338
G1 X64.709 Y42.4338
G1 X64.709 Y42.7894
G0 Z5 F20000
G1 E-60
G0 Z5 F20000
G0 X64.709 Y42.1394
G0 Z0.5 F20000
G1 E60
G1 X66.3854 Y42.1394
G1 X66.3854 Y41.7838
G1 X64.709 Y41.7838
G1 X64.709 Y42.1394
G0 Z5 F20000
G1 E-60
G0 Z5 F20000
G0 X64.709 Y41.4894
G0 Z0.5 F20000
G1 E60
G1 X66.3854 Y41.4894
G1 X66.3854 Y41.1338
G1 X64.709 Y41.1338
G1 X64.709 Y41.4894
G0 Z5 F20000
G1 E-60
G0 Z5 F20000
G0 X70.3478 Y41.4894
G0 Z0.5 F20000
G1 E60
G1 X72.0242 Y41.4894
G1 X72.0242 Y41.1338
G1 X70.3478 Y41.1338
G1 X70.3478 Y41.4894
G0 Z5 F20000
G1 E-60
G0 Z5 F20000
G0 X70.3478 Y42.1394
G0 Z0.5 F20000
G1 E60
G1 X72.0242 Y42.1394
G1 X72.0242 Y41.7838
G1 X70.3478 Y41.7838
G1 X70.3478 Y42.1394
G0 Z5 F20000
G1 E-60
G0 Z5 F20000
G0 X70.3478 Y42.7894
G0 Z0.5 F20000
G1 E60
G1 X72.0242 Y42.7894
G1 X72.0242 Y42.4338
G1 X70.3478 Y42.4338
G1 X70.3478 Y42.7894
G0 Z5 F20000
G1 E-60
G0 Z5 F20000
G0 X70.3478 Y43.4394
G0 Z0.5 F20000
G1 E60
G1 X72.0242 Y43.4394
G1 X72.0242 Y43.0838
G1 X70.3478 Y43.0838
G1 X70.3478 Y43.4394
G0 Z5 F20000
G1 E-60
G0 Z5 F20000
G0 X70.3478 Y44.0894
G0 Z0.5 F20000
G1 E60
G1 X72.0242 Y44.0894
G1 X72.0242 Y43.7338
G1 X70.3478 Y43.7338
G1 X70.3478 Y44.0894
G0 Z5 F20000
G1 E-60
G0 Z5 F20000
G0 X70.3478 Y44.7394
G0 Z0.5 F20000
G1 E60
G1 X72.0242 Y44.7394
G1 X72.0242 Y44.3838
G1 X70.3478 Y44.3838
G1 X70.3478 Y44.7394
G0 Z5 F20000
G1 E-60
G0 Z5 F20000
G0 X70.3478 Y45.3894
G0 Z0.5 F20000
G1 E60
G1 X72.0242 Y45.3894
G1 X72.0242 Y45.0338
G1 X70.3478 Y45.0338
G1 X70.3478 Y45.3894
G0 Z5 F20000
G1 E-60
G0 Z5 F20000
G0 X70.3478 Y46.0394
G0 Z0.5 F20000
G1 E60
G1 X72.0242 Y46.0394
G1 X72.0242 Y45.6838
G1 X70.3478 Y45.6838
G1 X70.3478 Y46.0394
G0 Z5 F20000
G1 E-60
G0 Z5 F20000
G0 X70.3478 Y46.6894
G0 Z0.5 F20000
G1 E60
G1 X72.0242 Y46.6894
G1 X72.0242 Y46.3338
G1 X70.3478 Y46.3338
G1 X70.3478 Y46.6894
G0 Z5 F20000
G1 E-60
G0 Z5 F20000
G0 X70.3478 Y47.3394
G0 Z0.5 F20000
G1 E60
G1 X72.0242 Y47.3394
G1 X72.0242 Y46.9838
G1 X70.3478 Y46.9838
G1 X70.3478 Y47.3394
G0 Z5 F20000
G1 E-60
G0 Z5 F20000
G0 X36.7966 Y13.7566
G0 Z0.5 F20000
G1 E60
G1 E-60
G0 Z5 F20000
G0 X36.7966 Y13.7566
G0 Z0.5 F20000
G1 E60
G2 X36.7966 Y13.7566 I-0.1800 J0.0000
G1 E-60
G0 Z5 F20000
G0 X36.9766 Y13.7566
G0 Z0.5 F20000
G1 E60
G2 X36.9766 Y13.7566 I-0.3600 J0.0000
G0 Z5 F20000
G1 E-60
G0 Z5 F20000
G0 X38.5656 Y4.0956
G0 Z0.5 F20000
G1 E60
G1 E-60
G0 Z5 F20000
G0 X38.5656 Y4.0956
G0 Z0.5 F20000
G1 E60
G2 X38.5656 Y4.0956 I-0.1800 J0.0000
G1 E-60
G0 Z5 F20000
G0 X38.7456 Y4.0956
G0 Z0.5 F20000
G1 E60
G2 X38.7456 Y4.0956 I-0.3600 J0.0000
G0 Z5 F20000
G1 E-60
G0 Z5 F20000
G0 X72.3566 Y17.5666
G0 Z0.5 F20000
G1 E60
G1 E-60
G0 Z5 F20000
G0 X72.3566 Y17.5666
G0 Z0.5 F20000
G1 E60
G2 X72.3566 Y17.5666 I-0.1800 J0.0000
G1 E-60
G0 Z5 F20000
G0 X72.5366 Y17.5666
G0 Z0.5 F20000
G1 E60
G2 X72.5366 Y17.5666 I-0.3600 J0.0000
G0 Z5 F20000
G1 E-60
G0 Z5 F20000
G0 X64.7366 Y21.3766
G0 Z0.5 F20000
G1 E60
G1 E-60
G0 Z5 F20000
G0 X64.7366 Y21.3766
G0 Z0.5 F20000
G1 E60
G2 X64.7366 Y21.3766 I-0.1800 J0.0000
G1 E-60
G0 Z5 F20000
G0 X64.9166 Y21.3766
G0 Z0.5 F20000
G1 E60
G2 X64.9166 Y21.3766 I-0.3600 J0.0000
G0 Z5 F20000
G1 E-60
G0 Z5 F20000
G0 X89.2476 Y20.8686
G0 Z0.5 F20000
G1 E60
G1 E-60
G0 Z5 F20000
G0 X89.2476 Y20.8686
G0 Z0.5 F20000
G1 E60
G2 X89.2476 Y20.8686 I-0.1800 J0.0000
G1 E-60
G0 Z5 F20000
G0 X89.4276 Y20.8686
G0 Z0.5 F20000
G1 E60
G2 X89.4276 Y20.8686 I-0.3600 J0.0000
G0 Z5 F20000
G1 E-60
G0 Z5 F20000
G0 X88.4856 Y15.0266
G0 Z0.5 F20000
G1 E60
G1 E-60
G0 Z5 F20000
G0 X88.4856 Y15.0266
G0 Z0.5 F20000
G1 E60
G2 X88.4856 Y15.0266 I-0.1800 J0.0000
G1 E-60
G0 Z5 F20000
G0 X88.6656 Y15.0266
G0 Z0.5 F20000
G1 E60
G2 X88.6656 Y15.0266 I-0.3600 J0.0000
G0 Z5 F20000
G1 E-60
G0 Z5 F20000
G0 X48.2266 Y11.2166
G0 Z0.5 F20000
G1 E60
G1 E-60
G0 Z5 F20000
G0 X48.2266 Y11.2166
G0 Z0.5 F20000
G1 E60
G2 X48.2266 Y11.2166 I-0.1800 J0.0000
G1 E-60
G0 Z5 F20000
G0 X48.4066 Y11.2166
G0 Z0.5 F20000
G1 E60
G2 X48.4066 Y11.2166 I-0.3600 J0.0000
G0 Z5 F20000
G1 E-60
G0 Z5 F20000
G0 X58.3866 Y20.1066
G0 Z0.5 F20000
G1 E60
G1 E-60
G0 Z5 F20000
G0 X58.3866 Y20.1066
G0 Z0.5 F20000
G1 E60
G2 X58.3866 Y20.1066 I-0.1800 J0.0000
G1 E-60
G0 Z5 F20000
G0 X58.5666 Y20.1066
G0 Z0.5 F20000
G1 E60
G2 X58.5666 Y20.1066 I-0.3600 J0.0000
G0 Z5 F20000
G1 E-60
G0 Z5 F20000
G0 X57.1166 Y37.8866
G0 Z0.5 F20000
G1 E60
G1 E-60
G0 Z5 F20000
G0 X57.1166 Y37.8866
G0 Z0.5 F20000
G1 E60
G2 X57.1166 Y37.8866 I-0.1800 J0.0000
G1 E-60
G0 Z5 F20000
G0 X57.2966 Y37.8866
G0 Z0.5 F20000
G1 E60
G2 X57.2966 Y37.8866 I-0.3600 J0.0000
G0 Z5 F20000
G1 E-60
G0 Z5 F20000
G0 X55.8466 Y32.8066
G0 Z0.5 F20000
G1 E60
G1 E-60
G0 Z5 F20000
G0 X55.8466 Y32.8066
G0 Z0.5 F20000
G1 E60
G2 X55.8466 Y32.8066 I-0.1800 J0.0000
G1 E-60
G0 Z5 F20000
G0 X56.0266 Y32.8066
G0 Z0.5 F20000
G1 E60
G2 X56.0266 Y32.8066 I-0.3600 J0.0000
G0 Z5 F20000
G1 E-60
G0 Z5 F20000
G0 X68.5466 Y23.2336
G0 Z0.5 F20000
G1 E60
G1 E-60
G0 Z5 F20000
G0 X68.5466 Y23.2336
G0 Z0.5 F20000
G1 E60
G2 X68.5466 Y23.2336 I-0.1800 J0.0000
G1 E-60
G0 Z5 F20000
G0 X68.7266 Y23.2336
G0 Z0.5 F20000
G1 E60
G2 X68.7266 Y23.2336 I-0.3600 J0.0000
G0 Z5 F20000
G1 E-60
G0 Z5 F20000
G0 X62.1966 Y41.6966
G0 Z0.5 F20000
G1 E60
G1 E-60
G0 Z5 F20000
G0 X62.1966 Y41.6966
G0 Z0.5 F20000
G1 E60
G2 X62.1966 Y41.6966 I-0.1800 J0.0000
G1 E-60
G0 Z5 F20000
G0 X62.3766 Y41.6966
G0 Z0.5 F20000
G1 E60
G2 X62.3766 Y41.6966 I-0.3600 J0.0000
G0 Z5 F20000
G1 E-60
G0 Z5 F20000
G0 X78.7066 Y44.2366
G0 Z0.5 F20000
G1 E60
G1 E-60
G0 Z5 F20000
G0 X78.7066 Y44.2366
G0 Z0.5 F20000
G1 E60
G2 X78.7066 Y44.2366 I-0.1800 J0.0000
G1 E-60
G0 Z5 F20000
G0 X78.8866 Y44.2366
G0 Z0.5 F20000
G1 E60
G2 X78.8866 Y44.2366 I-0.3600 J0.0000
G0 Z5 F20000
G1 E-60
G0 Z5 F20000
G0 X78.7066 Y48.0466
G0 Z0.5 F20000
G1 E60
G1 E-60
G0 Z5 F20000
G0 X78.7066 Y48.0466
G0 Z0.5 F20000
G1 E60
G2 X78.7066 Y48.0466 I-0.1800 J0.0000
G1 E-60
G0 Z5 F20000
G0 X78.8866 Y48.0466
G0 Z0.5 F20000
G1 E60
G2 X78.8866 Y48.0466 I-0.3600 J0.0000
G0 Z5 F20000
G1 E-60
G0 Z5 F20000
G0 X81.2466 Y42.9666
G0 Z0.5 F20000
G1 E60
G1 E-60
G0 Z5 F20000
G0 X81.2466 Y42.9666
G0 Z0.5 F20000
G1 E60
G2 X81.2466 Y42.9666 I-0.1800 J0.0000
G1 E-60
G0 Z5 F20000
G0 X81.4266 Y42.9666
G0 Z0.5 F20000
G1 E60
G2 X81.4266 Y42.9666 I-0.3600 J0.0000
G0 Z5 F20000
G1 E-60
G0 Z5 F20000
G0 X76.1666 Y25.1866
G0 Z0.5 F20000
G1 E60
G1 E-60
G0 Z5 F20000
G0 X76.1666 Y25.1866
G0 Z0.5 F20000
G1 E60
G2 X76.1666 Y25.1866 I-0.1800 J0.0000
G1 E-60
G0 Z5 F20000
G0 X76.3466 Y25.1866
G0 Z0.5 F20000
G1 E60
G2 X76.3466 Y25.1866 I-0.3600 J0.0000
G0 Z5 F20000
G1 E-60
G0 Z5 F20000
G0 X68.5466 Y31.5366
G0 Z0.5 F20000
G1 E60
G1 E-60
G0 Z5 F20000
G0 X68.5466 Y31.5366
G0 Z0.5 F20000
G1 E60
G2 X68.5466 Y31.5366 I-0.1800 J0.0000
G1 E-60
G0 Z5 F20000
G0 X68.7266 Y31.5366
G0 Z0.5 F20000
G1 E60
G2 X68.7266 Y31.5366 I-0.3600 J0.0000
G0 Z5 F20000
G1 E-60
G0 Z5 F20000
G0 X62.1966 Y27.7266
G0 Z0.5 F20000
G1 E60
G1 E-60
G0 Z5 F20000
G0 X62.1966 Y27.7266
G0 Z0.5 F20000
G1 E60
G2 X62.1966 Y27.7266 I-0.1800 J0.0000
G1 E-60
G0 Z5 F20000
G0 X62.3766 Y27.7266
G0 Z0.5 F20000
G1 E60
G2 X62.3766 Y27.7266 I-0.3600 J0.0000
G0 Z5 F20000
G1 E-60
G0 Z5 F20000
G0 X60.9266 Y36.6166
G0 Z0.5 F20000
G1 E60
G1 E-60
G0 Z5 F20000
G0 X60.9266 Y36.6166
G0 Z0.5 F20000
G1 E60
G2 X60.9266 Y36.6166 I-0.1800 J0.0000
G1 E-60
G0 Z5 F20000
G0 X61.1066 Y36.6166
G0 Z0.5 F20000
G1 E60
G2 X61.1066 Y36.6166 I-0.3600 J0.0000
G0 Z5 F20000
G1 E-60
G0 Z5 F20000
G0 X59.6566 Y31.5366
G0 Z0.5 F20000
G1 E60
G1 E-60
G0 Z5 F20000
G0 X59.6566 Y31.5366
G0 Z0.5 F20000
G1 E60
G2 X59.6566 Y31.5366 I-0.1800 J0.0000
G1 E-60
G0 Z5 F20000
G0 X59.8366 Y31.5366
G0 Z0.5 F20000
G1 E60
G2 X59.8366 Y31.5366 I-0.3600 J0.0000
G0 Z5 F20000
G1 E-60
G0 Z5 F20000
G0 X71.0866 Y35.3466
G0 Z0.5 F20000
G1 E60
G1 E-60
G0 Z5 F20000
G0 X71.0866 Y35.3466
G0 Z0.5 F20000
G1 E60
G2 X71.0866 Y35.3466 I-0.1800 J0.0000
G1 E-60
G0 Z5 F20000
G0 X71.2666 Y35.3466
G0 Z0.5 F20000
G1 E60
G2 X71.2666 Y35.3466 I-0.3600 J0.0000
G0 Z5 F20000
G1 E-60
G0 Z5 F20000
G0 X75.8666 Y32.8116
G0 Z0.5 F20000
G1 E60
G1 E-60
G0 Z5 F20000
G0 X75.8666 Y32.8116
G0 Z0.5 F20000
G1 E60
G2 X75.8666 Y32.8116 I-0.1800 J0.0000
G1 E-60
G0 Z5 F20000
G0 X76.0466 Y32.8116
G0 Z0.5 F20000
G1 E60
G2 X76.0466 Y32.8116 I-0.3600 J0.0000
G0 Z5 F20000
G1 E-60
G0 Z5 F20000
G0 X52.0366 Y30.2666
G0 Z0.5 F20000
G1 E60
G1 E-60
G0 Z5 F20000
G0 X52.0366 Y30.2666
G0 Z0.5 F20000
G1 E60
G2 X52.0366 Y30.2666 I-0.1800 J0.0000
G1 E-60
G0 Z5 F20000
G0 X52.2166 Y30.2666
G0 Z0.5 F20000
G1 E60
G2 X52.2166 Y30.2666 I-0.3600 J0.0000
G0 Z5 F20000
G1 E-60
G0 Z5 F20000
G0 X72.3566 Y22.6466
G0 Z0.5 F20000
G1 E60
G1 E-60
G0 Z5 F20000
G0 X72.3566 Y22.6466
G0 Z0.5 F20000
G1 E60
G2 X72.3566 Y22.6466 I-0.1800 J0.0000
G1 E-60
G0 Z5 F20000
G0 X72.5366 Y22.6466
G0 Z0.5 F20000
G1 E60
G2 X72.5366 Y22.6466 I-0.3600 J0.0000
G0 Z5 F20000